{"version": 0.6, "generator": "Overpass API 0.7.62.8 e802775f", "osm3s": {"timestamp_osm_base": "2025-11-24T16:11:15Z", "copyright": "The data included in this document is from www.openstreetmap.org. The data is made available under ODbL."}, "elements": [{"type": "node", "id": 895872214, "lat": -6.266326, "lon": 107.1056467, "tags": {"name": "Alfamart", "shop": "convenience"}}, {"type": "node", "id": 1283809940, "lat": -6.328414, "lon": 107.1279283, "tags": {"addr:city": "Bekasi", "addr:postcode": "17550", "addr:street": "jalan meranti 1", "amenity": "fast_food", "cuisine": "sandwich", "name": "Subway", "shop": "supermarket"}}, {"type": "node", "id": 1283809944, "lat": -6.3295621, "lon": 107.1297439}, {"type": "node", "id": 1283836254, "lat": -6.3273897, "lon": 107.1268}, {"type": "node", "id": 1285642724, "lat": -6.25821, "lon": 107.1464706, "tags": {"name": "SGC - Sentra Grosir Cikarang", "shop": "supermarket"}}, {"type": "node", "id": 1766020594, "lat": -6.2882437, "lon": 107.1596674, "tags": {"name": "Giant", "shop": "supermarket"}}, {"type": "node", "id": 1783241412, "lat": -6.4447982, "lon": 107.0404181, "tags": {"name": "Arundina", "shop": "supermarket"}}, {"type": "node", "id": 1783241415, "lat": -6.4448408, "lon": 107.0403109, "tags": {"addr:city": "Kabupaten Bogor", "addr:postcode": "16830", "addr:street": "Jalan Bukit Menteng", "brand": "Indomaret", "brand:wikidata": "Q4262825", "brand:wikipedia": "en:Indomaret", "name": "Indomaret", "opening_hours": "Mo-Su 07:00-22:00", "opening_hours:covid19": "Mo-Su 07:00-19:00", "payment:cash": "yes", "payment:credit_cards": "yes", "payment:debit_cards": "yes", "shop": "convenience"}}, {"type": "node", "id": 1783241419, "lat": -6.4447236, "lon": 107.0404986, "tags": {"addr:city": "Kabupaten Bogor", "addr:postcode": "16830", "addr:street": "Jalan Bukit Menteng", "brand": "Alfamart", "brand:wikidata": "Q23745600", "brand:wikipedia": "en:Alfamart", "name": "Alfamart", "opening_hours": "Mo-Su 07:00-22:00", "opening_hours:covid19": "Mo-Su 07:00-19:00", "payment:cash": "yes", "payment:credit_cards": "yes", "payment:debit_cards": "yes", "shop": "supermarket"}}, {"type": "node", "id": 1783250858, "lat": -6.4523195, "lon": 107.0417539, "tags": {"amenity": "cafe", "cuisine": "coffee_shop", "name": "Mocari Coffee"}}, {"type": "node", "id": 1989498896, "lat": -6.25897, "lon": 107.1475907, "tags": {"name": "Naga", "shop": "supermarket"}}, {"type": "node", "id": 1994664008, "lat": -6.2530562, "lon": 107.1700303, "tags": {"shop": "convenience"}}, {"type": "node", "id": 1994664506, "lat": -6.2532909, "lon": 107.1727072, "tags": {"name": "Indomaret", "shop": "convenience"}}, {"type": "node", "id": 1994664759, "lat": -6.2532909, "lon": 107.1725784, "tags": {"name": "Alfamaret", "shop": "convenience"}}, {"type": "node", "id": 1994712626, "lat": -6.297914, "lon": 107.1494551, "tags": {"name": "Plaza Jababeka", "shop": "supermarket"}}, {"type": "node", "id": 1994721937, "lat": -6.2971623, "lon": 107.1475747, "tags": {"amenity": "fast_food", "name": "Paparons Pizza"}}, {"type": "node", "id": 1994729202, "lat": -6.2988471, "lon": 107.1484117, "tags": {"name": "Grand Zuri", "tourism": "hotel"}}, {"type": "node", "id": 1995630568, "lat": -6.311076, "lon": 107.1451716, "tags": {"name": "Carefour", "shop": "supermarket"}}, {"type": "node", "id": 2159201607, "lat": -6.309604, "lon": 107.2926871, "tags": {"name": "Alfamart", "shop": "supermarket"}}, {"type": "node", "id": 2500443125, "lat": -6.3554139, "lon": 107.2298455, "tags": {"addr:city": "Karawang", "addr:housenumber": "KM 42", "addr:street": "Jalan Tol Jakarta-Cikampek", "amenity": "fuel", "fuel:diesel": "yes", "fuel:octane_88": "yes", "fuel:octane_92": "yes", "fuel:octane_95": "yes", "name": "SPBU 34.413.45", "operator": "Pertamina", "shop": "convenience", "toilets": "yes"}}, {"type": "node", "id": 3178470614, "lat": -6.2804838, "lon": 107.0870162, "tags": {"amenity": "restaurant", "name": "RM Bagindo"}}, {"type": "node", "id": 3238632083, "lat": -6.3600561, "lon": 107.2614829}, {"type": "node", "id": 3238632084, "lat": -6.36013, "lon": 107.2615843}, {"type": "node", "id": 3238632085, "lat": -6.3602551, "lon": 107.2615404}, {"type": "node", "id": 3238632086, "lat": -6.3602987, "lon": 107.261621}, {"type": "node", "id": 3238632087, "lat": -6.3600994, "lon": 107.2616979}, {"type": "node", "id": 3238632088, "lat": -6.3599715, "lon": 107.2615384}, {"type": "node", "id": 3436701663, "lat": -6.3183867, "lon": 107.1453302, "tags": {"name": "Indomaret", "shop": "supermarket"}}, {"type": "node", "id": 3455797898, "lat": -6.2750967, "lon": 107.0450446}, {"type": "node", "id": 3455797899, "lat": -6.2752753, "lon": 107.0449711}, {"type": "node", "id": 3455797900, "lat": -6.2753226, "lon": 107.0451607}, {"type": "node", "id": 3455797901, "lat": -6.2751939, "lon": 107.0452137}, {"type": "node", "id": 3490836870, "lat": -6.3288515, "lon": 107.1287564}, {"type": "node", "id": 3490836871, "lat": -6.3290609, "lon": 107.1290749}, {"type": "node", "id": 3490836872, "lat": -6.3286783, "lon": 107.1293159}, {"type": "node", "id": 3490836873, "lat": -6.3284696, "lon": 107.129017}, {"type": "node", "id": 3517254834, "lat": -6.4660247, "lon": 107.0601726, "tags": {"name": "Ceria Mart", "operator": "Ceria Mart", "shop": "convenience"}}, {"type": "node", "id": 3628845544, "lat": -6.2591826, "lon": 107.0143404}, {"type": "node", "id": 3628845545, "lat": -6.2593088, "lon": 107.0146759}, {"type": "node", "id": 3628845546, "lat": -6.2591664, "lon": 107.0147475}, {"type": "node", "id": 3628845547, "lat": -6.2588459, "lon": 107.0147573}, {"type": "node", "id": 3628845548, "lat": -6.2587423, "lon": 107.0145293}, {"type": "node", "id": 3946870595, "lat": -6.2857717, "lon": 107.0187795}, {"type": "node", "id": 3946870596, "lat": -6.2858245, "lon": 107.0188774}, {"type": "node", "id": 3946870598, "lat": -6.2858885, "lon": 107.0187123}, {"type": "node", "id": 3946870599, "lat": -6.2859469, "lon": 107.0188019}, {"type": "node", "id": 3951773410, "lat": -6.2818953, "lon": 107.0214879}, {"type": "node", "id": 3951773411, "lat": -6.2819301, "lon": 107.0215451}, {"type": "node", "id": 3951773412, "lat": -6.2819542, "lon": 107.0214517}, {"type": "node", "id": 3951773413, "lat": -6.281989, "lon": 107.0215088}, {"type": "node", "id": 4028944469, "lat": -6.3219222, "lon": 107.1525074}, {"type": "node", "id": 4028944470, "lat": -6.3218654, "lon": 107.1525407}, {"type": "node", "id": 4028944471, "lat": -6.3219517, "lon": 107.15269}, {"type": "node", "id": 4028944472, "lat": -6.3219171, "lon": 107.1527103}, {"type": "node", "id": 4028944473, "lat": -6.322149, "lon": 107.1531114}, {"type": "node", "id": 4028944474, "lat": -6.3222405, "lon": 107.1530579}, {"type": "node", "id": 4115906002, "lat": -6.2605881, "lon": 107.0011509}, {"type": "node", "id": 4115906003, "lat": -6.2607321, "lon": 107.0010115}, {"type": "node", "id": 4115906004, "lat": -6.2607471, "lon": 107.0012906}, {"type": "node", "id": 4115906005, "lat": -6.260883, "lon": 107.0011458}, {"type": "node", "id": 4115906006, "lat": -6.2616797, "lon": 107.0009034}, {"type": "node", "id": 4115906007, "lat": -6.2617734, "lon": 107.0008839}, {"type": "node", "id": 4115906008, "lat": -6.2617303, "lon": 107.0010997}, {"type": "node", "id": 4115906010, "lat": -6.2624616, "lon": 107.0008969}, {"type": "node", "id": 4115906011, "lat": -6.2624067, "lon": 107.0011659}, {"type": "node", "id": 4162549803, "lat": -6.2676058, "lon": 107.1046051, "tags": {"addr:street": "Jalan Taman Aster", "name": "Alfamidi", "shop": "convenience"}}, {"type": "node", "id": 4167435042, "lat": -6.2666762, "lon": 107.1065444, "tags": {"addr:street": "Jalan Taman Aster", "amenity": "food_court", "name": "Pujasera"}}, {"type": "node", "id": 4262078310, "lat": -6.266935, "lon": 107.0790979, "tags": {"addr:city": "Bekasi", "addr:postcode": "17520", "addr:street": "Jl. Teuku Umar", "name": "Holland Bakery Cibitung", "shop": "bakery"}}, {"type": "node", "id": 4262082676, "lat": -6.2658907, "lon": 107.0164414, "tags": {"addr:city": "Bekasi", "addr:postcode": "17510", "addr:street": "Jalan Jatimulya,", "name": "Holland Bakery De Minimalis", "shop": "bakery"}}, {"type": "node", "id": 4432048510, "lat": -6.3213575, "lon": 107.0158347, "tags": {"addr:city": "Bekasi", "addr:postcode": "17155", "addr:street": "Jl. Setu - Bantar Gebang", "amenity": "restaurant", "capacity": "100", "cuisine": "fried_chicken", "delivery": "yes", "description": "Classic, long-running fast-food chain known for its burgers, fries & shakes", "name": "McDonald Mustikajaya", "opening_hours": "06:00-11:00", "phone": "+62 21-14045", "smoking": "outside", "takeaway": "yes", "website": "https://mcdonalds.co.id/"}}, {"type": "node", "id": 4432065931, "lat": -6.3098095, "lon": 107.022719, "tags": {"addr:city": "Bekasi", "addr:postcode": "17156", "addr:street": "Jalan Zamrud Utara", "name": "Alfamart", "shop": "supermarket"}}, {"type": "node", "id": 4432065932, "lat": -6.3100353, "lon": 107.022538, "tags": {"addr:city": "Bekasi", "addr:postcode": "16340", "addr:street": "Jalan Zamrud Utara", "name": "Alfamidi", "shop": "supermarket"}}, {"type": "node", "id": 4432072873, "lat": -6.3096197, "lon": 107.0226203, "tags": {"addr:city": "Bekasi", "addr:postcode": "16340", "addr:street": "Jalan Zamrud Utara", "amenity": "restaurant", "capacity": "100", "cuisine": "chicken", "delivery": "yes", "name": "Ayam Lepas", "opening_hours": "09:00-22:30", "smoking": "no", "takeaway": "yes"}}, {"type": "node", "id": 4432072874, "lat": -6.3099573, "lon": 107.0222423, "tags": {"addr:city": "Bekasi", "addr:postcode": "16340", "addr:street": "Jalan Zamrud Utara", "amenity": "restaurant", "capacity": "50", "cuisine": "japanese", "delivery": "yes", "name": "Yokobento", "opening_hours": "09:00-21:00", "smoking": "outside", "takeaway": "yes"}}, {"type": "node", "id": 4432072879, "lat": -6.3124034, "lon": 107.0220513, "tags": {"addr:city": "Bekasi", "addr:postcode": "16340", "addr:street": "Jalan Zamrud Utara", "amenity": "cafe", "cuisine": "ice_cream", "internet_access": "yes", "name": "Moo Nyusu", "opening_hours": "15:00-21:00", "smoking": "outside"}}, {"type": "node", "id": 4438795699, "lat": -6.3088268, "lon": 107.0255679, "tags": {"addr:city": "Bekasi", "addr:postcode": "16340", "addr:street": "Jl. Dukuh Zamrud Utara", "name": "Indomaret", "opening_hours": "06:30-22:30", "shop": "supermarket"}}, {"type": "node", "id": 4438795701, "lat": -6.3089529, "lon": 107.0262843, "tags": {"addr:city": "Bekasi", "addr:postcode": "16340", "addr:street": "Jalan Zamrud Utara", "name": "Alfamart", "shop": "supermarket"}}, {"type": "node", "id": 4438813785, "lat": -6.3119279, "lon": 107.0220621, "tags": {"addr:city": "Bekasi", "addr:postcode": "16340", "addr:street": "Jalan Zamrud Utara", "name": "Indomaret", "shop": "supermarket"}}, {"type": "node", "id": 4438813786, "lat": -6.3127086, "lon": 107.0220431, "tags": {"addr:city": "Bekasi", "addr:postcode": "16340", "addr:street": "Jalan Zamrud Utara", "name": "Alfamart", "shop": "supermarket"}}, {"type": "node", "id": 4438813787, "lat": -6.3095225, "lon": 107.0227745, "tags": {"addr:city": "Bekasi", "addr:street": "Jalan Zamrud Utara", "amenity": "cafe", "cuisine": "ice_cream", "internet_access": "wlan", "name": "Susu Moo", "smoking": "outside"}}, {"type": "node", "id": 4438871522, "lat": -6.3089837, "lon": 107.0217184, "tags": {"addr:city": "Bekasi", "addr:street": "Jl. Dukuh Zamrud", "name": "Indomaret", "shop": "supermarket"}}, {"type": "node", "id": 4440521136, "lat": -6.3139635, "lon": 107.0215789, "tags": {"addr:city": "Bekasi", "addr:street": "Jl. Zamrud Utama", "amenity": "cafe", "cuisine": "regional", "name": "Happiness Cofee and Food", "opening_hours": "10:00-21:00"}}, {"type": "node", "id": 4440521137, "lat": -6.3143264, "lon": 107.0214921, "tags": {"addr:city": "Bekasi", "addr:street": "Jl. Zamrud Utama", "amenity": "restaurant", "cuisine": "bread", "name": "Zamrud Bakery"}}, {"type": "node", "id": 4440521498, "lat": -6.3094622, "lon": 107.0228867, "tags": {"amenity": "restaurant", "name": "Nasi Padang Sederhana"}}, {"type": "node", "id": 4440521538, "lat": -6.308276, "lon": 107.027134, "tags": {"addr:city": "Bekasi", "addr:street": "Jalan Zamrud Utara", "amenity": "restaurant", "cuisine": "fried_chicken", "name": "HAS Fried Chicken"}}, {"type": "node", "id": 4541882590, "lat": -6.2589799, "lon": 107.0142466, "tags": {"addr:street": "chairil anwar", "name:en": "Alfamidi", "shop": "supermarket"}}, {"type": "node", "id": 4543191196, "lat": -6.2684846, "lon": 107.0235546, "tags": {"addr:street": "jl melati IV", "name:en": "Rumah Ato Mikha", "tourism": "guest_house"}}, {"type": "node", "id": 4546692166, "lat": -6.3481372, "lon": 107.205038, "tags": {"alt_name": "Kentucky Fried Chicken", "amenity": "fast_food", "brand": "KFC", "brand:wikidata": "Q524757", "brand:wikipedia": "en:KFC", "cuisine": "chicken", "name": "KFC", "takeaway": "yes"}}, {"type": "node", "id": 4605247501, "lat": -6.2582159, "lon": 107.1428489, "tags": {"name": "hotel danker", "tourism": "hotel"}}, {"type": "node", "id": 4628473293, "lat": -6.2694425, "lon": 107.0014342, "tags": {"name:en": "Alfamidi", "shop": "convenience"}}, {"type": "node", "id": 4628526590, "lat": -6.2695402, "lon": 107.0036139, "tags": {"name:en": "Alfamidi", "shop": "convenience"}}, {"type": "node", "id": 4628613589, "lat": -6.2692636, "lon": 107.002595, "tags": {"name:en": "Indomaret", "shop": "convenience"}}, {"type": "node", "id": 4628613889, "lat": -6.2694378, "lon": 107.0024504, "tags": {"name:en": "Alfamart", "shop": "convenience"}}, {"type": "node", "id": 4715152769, "lat": -6.3919751, "lon": 107.0012017, "tags": {"amenity": "restaurant", "cuisine": "indonesian", "name": "Saung Apung", "wheelchair": "no"}}, {"type": "node", "id": 4832034882, "lat": -6.418102, "lon": 107.0296185, "tags": {"amenity": "restaurant", "capacity": "50", "cuisine": "regional", "delivery": "no", "name": "Bakso wonogiri", "opening_hours": "10:00-21:00", "takeaway": "yes"}}, {"type": "node", "id": 4846747258, "lat": -6.3298313, "lon": 107.1334484}, {"type": "node", "id": 4846747260, "lat": -6.329795, "lon": 107.1333259}, {"type": "node", "id": 4846747261, "lat": -6.3305433, "lon": 107.1328621}, {"type": "node", "id": 4846747262, "lat": -6.3314112, "lon": 107.1341802}, {"type": "node", "id": 4846747263, "lat": -6.3314112, "lon": 107.1342452}, {"type": "node", "id": 4846747264, "lat": -6.3313829, "lon": 107.1342981}, {"type": "node", "id": 4846747265, "lat": -6.331286, "lon": 107.1343712}, {"type": "node", "id": 4846747266, "lat": -6.3307283, "lon": 107.1347453}, {"type": "node", "id": 4846747267, "lat": -6.3305057, "lon": 107.1347745}, {"type": "node", "id": 4846747268, "lat": -6.3301083, "lon": 107.1341493}, {"type": "node", "id": 4879829524, "lat": -6.2998277, "lon": 107.2988641, "tags": {"name:en": "Hotel Kolam Renang Permata Ruby", "tourism": "hotel"}}, {"type": "node", "id": 4903668971, "lat": -6.3266799, "lon": 107.1147224}, {"type": "node", "id": 4903668972, "lat": -6.3265433, "lon": 107.1147734}, {"type": "node", "id": 4903668983, "lat": -6.3279265, "lon": 107.1164721}, {"type": "node", "id": 4903668984, "lat": -6.327599, "lon": 107.1159643}, {"type": "node", "id": 4903668985, "lat": -6.3277191, "lon": 107.1159724}, {"type": "node", "id": 4903668999, "lat": -6.3286316, "lon": 107.1150923}, {"type": "node", "id": 4903669000, "lat": -6.3275427, "lon": 107.1158234}, {"type": "node", "id": 4903669002, "lat": -6.3290261, "lon": 107.1160579}, {"type": "node", "id": 4903672273, "lat": -6.3270234, "lon": 107.1160842}, {"type": "node", "id": 4903672275, "lat": -6.3282596, "lon": 107.114121}, {"type": "node", "id": 4903672276, "lat": -6.3266655, "lon": 107.1146798}, {"type": "node", "id": 4903678876, "lat": -6.3346208, "lon": 107.1160816}, {"type": "node", "id": 4903678877, "lat": -6.3340064, "lon": 107.1162892}, {"type": "node", "id": 4903678878, "lat": -6.3338631, "lon": 107.1158693}, {"type": "node", "id": 4903678879, "lat": -6.3344653, "lon": 107.1156576}, {"type": "node", "id": 4912974916, "lat": -6.3315419, "lon": 107.1436804}, {"type": "node", "id": 4912974938, "lat": -6.3311126, "lon": 107.1448416}, {"type": "node", "id": 4912974939, "lat": -6.3313227, "lon": 107.1448743}, {"type": "node", "id": 4912974940, "lat": -6.3313087, "lon": 107.1449655}, {"type": "node", "id": 4912974941, "lat": -6.3310939, "lon": 107.1449638}, {"type": "node", "id": 4915019208, "lat": -6.3342571, "lon": 107.1034364}, {"type": "node", "id": 4915019209, "lat": -6.334367, "lon": 107.1034026}, {"type": "node", "id": 4915019210, "lat": -6.3342402, "lon": 107.1030931}, {"type": "node", "id": 4915019211, "lat": -6.334133, "lon": 107.103138}, {"type": "node", "id": 4926795326, "lat": -6.2804551, "lon": 107.0394169}, {"type": "node", "id": 4926795327, "lat": -6.2808043, "lon": 107.0393069}, {"type": "node", "id": 4926795328, "lat": -6.2810028, "lon": 107.0399451}, {"type": "node", "id": 4926795329, "lat": -6.2806536, "lon": 107.0400551}, {"type": "node", "id": 4928092449, "lat": -6.3645107, "lon": 107.1179658}, {"type": "node", "id": 4928092450, "lat": -6.3645906, "lon": 107.1179478}, {"type": "node", "id": 4928092451, "lat": -6.3645752, "lon": 107.1178788}, {"type": "node", "id": 4928092452, "lat": -6.3644953, "lon": 107.1178968}, {"type": "node", "id": 4930254521, "lat": -6.2719067, "lon": 107.06644}, {"type": "node", "id": 4930254522, "lat": -6.2720107, "lon": 107.066835}, {"type": "node", "id": 4930254523, "lat": -6.271948, "lon": 107.0668517}, {"type": "node", "id": 4930254524, "lat": -6.271844, "lon": 107.0664567}, {"type": "node", "id": 5008554315, "lat": -6.2583307, "lon": 107.1598114}, {"type": "node", "id": 5008554316, "lat": -6.2583414, "lon": 107.1599254}, {"type": "node", "id": 5008554317, "lat": -6.2582208, "lon": 107.1599368}, {"type": "node", "id": 5008554318, "lat": -6.2582102, "lon": 107.1598228}, {"type": "node", "id": 5035091822, "lat": -6.3221235, "lon": 107.0378746, "tags": {"name:en": "Alfamart", "shop": "convenience"}}, {"type": "node", "id": 5035130024, "lat": -6.3209079, "lon": 107.0164322, "tags": {"alt_name": "Kentucky Fried Chicken", "amenity": "fast_food", "brand": "KFC", "brand:wikidata": "Q524757", "brand:wikipedia": "en:KFC", "cuisine": "chicken", "name": "KFC Mustika Jaya", "name:en": "Kentucky Fried Chiken (KFC)", "takeaway": "yes"}}, {"type": "node", "id": 5035130025, "lat": -6.3187256, "lon": 107.0141695, "tags": {"amenity": "restaurant", "name:en": "Bakso Sukowati"}}, {"type": "node", "id": 5035130921, "lat": -6.3307227, "lon": 107.0335458, "tags": {"addr:postcode": "17320", "addr:street": "JL. GRAND RESIDENCE CITY BOULEVARD", "name": "Alfamart", "opening_hours": "Mo-Su 07:00-22:00", "shop": "convenience"}}, {"type": "node", "id": 5269695907, "lat": -6.2651067, "lon": 107.0086686}, {"type": "node", "id": 5269695914, "lat": -6.2656134, "lon": 107.0117186}, {"type": "node", "id": 5295473781, "lat": -6.3290975, "lon": 107.2915071}, {"type": "node", "id": 5295473782, "lat": -6.328959, "lon": 107.292142}, {"type": "node", "id": 5295473783, "lat": -6.3295047, "lon": 107.2922039}, {"type": "node", "id": 5295473784, "lat": -6.3294957, "lon": 107.2915939}, {"type": "node", "id": 5311399725, "lat": -6.285436, "lon": 107.2815549, "tags": {"amenity": "restaurant", "name:en": "RM Soto Gempol"}}, {"type": "node", "id": 5475734228, "lat": -6.3488989, "lon": 107.2866708}, {"type": "node", "id": 5475734745, "lat": -6.3494053, "lon": 107.2864401}, {"type": "node", "id": 5693249727, "lat": -6.2709295, "lon": 107.0464345, "tags": {"name:en": "Alfamidi", "shop": "convenience"}}, {"type": "node", "id": 5713317879, "lat": -6.4846379, "lon": 107.1060784, "tags": {"name": "Cemera Indah Hotel", "tourism": "hotel"}}, {"type": "node", "id": 5748395651, "lat": -6.3227405, "lon": 107.0367657, "tags": {"addr:city": "Bekasi", "addr:street": "Jl.Grand Residence Boulevard", "amenity": "food_court", "name": "Grand Festival", "operator": "Grand Residence City"}}, {"type": "node", "id": 5749056198, "lat": -6.330382, "lon": 107.0334349, "tags": {"amenity": "food_court", "name": "RUKO RR BOULEVARD"}}, {"type": "node", "id": 5749056199, "lat": -6.3303924, "lon": 107.0335489, "tags": {"amenity": "food_court", "name": "RUKO RR BOULEVARD"}}, {"type": "node", "id": 5749056200, "lat": -6.3313787, "lon": 107.0322954, "tags": {"addr:street": "JL. GRAND RESIDENCE CITY BOULEVARD", "amenity": "food_court", "name": "GRAND LAKE SNACK COURT", "opening_hours": "Mo-Su 06:00-21:00", "outdoor_seating": "yes", "smoking": "separated"}}, {"type": "node", "id": 5749056201, "lat": -6.3261993, "lon": 107.0359501, "tags": {"addr:street": "JL. GRAND RESIDENCE CITY BOULEVARD", "name": "INDOMARET", "opening_hours": "Mo-Su 09:00-21:00", "shop": "convenience"}}, {"type": "node", "id": 5749997121, "lat": -6.2972039, "lon": 107.1488985, "tags": {"name": "Hotel Java Palace", "tourism": "hotel"}}, {"type": "node", "id": 5750007446, "lat": -6.3459065, "lon": 107.165363, "tags": {"amenity": "restaurant", "cuisine": "japanese", "name": "Ikkudo Ichi"}}, {"type": "node", "id": 5750016479, "lat": -6.3392293, "lon": 107.1207805, "tags": {"name": "Celecton Cikarang", "tourism": "hotel"}}, {"type": "node", "id": 6031486148, "lat": -6.3455651, "lon": 107.1536569}, {"type": "node", "id": 6031486149, "lat": -6.3456201, "lon": 107.1535399}, {"type": "node", "id": 6031486150, "lat": -6.3457663, "lon": 107.15361}, {"type": "node", "id": 6031486151, "lat": -6.3457112, "lon": 107.1537265}, {"type": "node", "id": 6053113972, "lat": -6.3387954, "lon": 107.1085651}, {"type": "node", "id": 6053113973, "lat": -6.3388385, "lon": 107.1086836}, {"type": "node", "id": 6053113974, "lat": -6.3389155, "lon": 107.1086553}, {"type": "node", "id": 6053113975, "lat": -6.3388723, "lon": 107.1085368}, {"type": "node", "id": 6053117438, "lat": -6.340437, "lon": 107.0983542}, {"type": "node", "id": 6064983178, "lat": -6.330992, "lon": 107.145721}, {"type": "node", "id": 6064983179, "lat": -6.3310097, "lon": 107.1457771}, {"type": "node", "id": 6064983180, "lat": -6.3312239, "lon": 107.1458066}, {"type": "node", "id": 6064983181, "lat": -6.3312305, "lon": 107.1457578}, {"type": "node", "id": 6065882813, "lat": -6.3407412, "lon": 107.1541421}, {"type": "node", "id": 6065882814, "lat": -6.3410514, "lon": 107.1541405}, {"type": "node", "id": 6065882815, "lat": -6.3410497, "lon": 107.1538063}, {"type": "node", "id": 6065882816, "lat": -6.3407395, "lon": 107.1538079}, {"type": "node", "id": 6069839516, "lat": -6.2576593, "lon": 107.0211526}, {"type": "node", "id": 6069839517, "lat": -6.2577692, "lon": 107.0210979}, {"type": "node", "id": 6069839518, "lat": -6.2577297, "lon": 107.0210177}, {"type": "node", "id": 6069839519, "lat": -6.2576199, "lon": 107.0210724}, {"type": "node", "id": 6069878431, "lat": -6.2730151, "lon": 107.0084622}, {"type": "node", "id": 6069878436, "lat": -6.2730087, "lon": 107.0083494}, {"type": "node", "id": 6069878440, "lat": -6.2731041, "lon": 107.008457}, {"type": "node", "id": 6069878441, "lat": -6.2730977, "lon": 107.0083443}, {"type": "node", "id": 6069878442, "lat": -6.2731533, "lon": 107.008341}, {"type": "node", "id": 6069878443, "lat": -6.2731598, "lon": 107.0084538}, {"type": "node", "id": 6070151367, "lat": -6.2813741, "lon": 107.0067515}, {"type": "node", "id": 6070151368, "lat": -6.2814651, "lon": 107.0067145}, {"type": "node", "id": 6070151369, "lat": -6.2815013, "lon": 107.0068044}, {"type": "node", "id": 6070151370, "lat": -6.2814103, "lon": 107.0068415}, {"type": "node", "id": 6070152847, "lat": -6.2790093, "lon": 107.0066043}, {"type": "node", "id": 6070152867, "lat": -6.2786272, "lon": 107.0066804}, {"type": "node", "id": 6070153159, "lat": -6.2810317, "lon": 107.0063158}, {"type": "node", "id": 6070153160, "lat": -6.2810169, "lon": 107.0061975}, {"type": "node", "id": 6070153165, "lat": -6.2809121, "lon": 107.006331}, {"type": "node", "id": 6070153168, "lat": -6.2808973, "lon": 107.0062127}, {"type": "node", "id": 6153830121, "lat": -6.3501075, "lon": 107.2969334, "tags": {"amenity": "restaurant"}}, {"type": "node", "id": 6185398187, "lat": -6.278788, "lon": 107.0759553, "tags": {"name": "Alfamart", "shop": "supermarket"}}, {"type": "node", "id": 6631184429, "lat": -6.389147, "lon": 107.0741068, "tags": {"addr:housenumber": "86", "addr:street": "Gang Suhari, Kampung Leungsir, Desa Jaya Sampurna 03/02, Serang Baru, Bekasi, West Java 17330", "name": "Toko Holly/Nainggolan", "opening_hours": "Mo-Sa 05:30-00:00; Su 13:00-00:00", "phone": "+62 812 1060 1517", "shop": "convenience"}}, {"type": "node", "id": 6788803194, "lat": -6.3478329, "lon": 107.2042892, "tags": {"amenity": "cafe", "name:en": "Starbucks"}}, {"type": "node", "id": 6821965273, "lat": -6.3601576, "lon": 107.2616552}, {"type": "node", "id": 6841413256, "lat": -6.2671717, "lon": 107.018952, "tags": {"brand": "Indomaret", "brand:wikidata": "Q4262825", "brand:wikipedia": "en:Indomaret", "name": "Indomaret", "shop": "convenience"}}, {"type": "node", "id": 6881996089, "lat": -6.4197922, "lon": 107.0057389, "tags": {"addr:street": "Jl. Gandoang", "branch": "Gandoang", "brand": "Indomaret", "brand:wikidata": "Q4262825", "brand:wikipedia": "en:Indomaret", "name": "Indomaret", "shop": "convenience"}}, {"type": "node", "id": 7204179085, "lat": -6.3403418, "lon": 107.0982442}, {"type": "node", "id": 7204179086, "lat": -6.3403453, "lon": 107.0983568}, {"type": "node", "id": 7204179087, "lat": -6.3404359, "lon": 107.0982429}, {"type": "node", "id": 7293623846, "lat": -6.2965443, "lon": 107.292101}, {"type": "node", "id": 7293623847, "lat": -6.2965514, "lon": 107.2920714}, {"type": "node", "id": 7293623848, "lat": -6.2966097, "lon": 107.2920855}, {"type": "node", "id": 7293623849, "lat": -6.2966027, "lon": 107.292115}, {"type": "node", "id": 7653155318, "lat": -6.3298643, "lon": 107.1340396}, {"type": "node", "id": 8174019666, "lat": -6.257776, "lon": 107.101128, "tags": {"addr:city": "Bekasi", "addr:housenumber": "22", "addr:postcode": "17520", "addr:street": "Jl. H. Samin", "amenity": "cafe", "name": "D'nomi Cafe"}}, {"type": "node", "id": 8353656347, "lat": -6.4520614, "lon": 107.0385067, "tags": {"addr:city": "Kabupaten Bogor", "addr:postcode": "16830", "addr:street": "Jalan Citra Indah Utama", "brand": "Indomaret", "brand:wikidata": "Q4262825", "brand:wikipedia": "en:Indomaret", "name": "Indomaret", "opening_hours": "Mo-Su 07:00-22:00", "opening_hours:covid19": "Mo-Su 08:00-19:00", "payment:cash": "yes", "payment:credit_cards": "yes", "payment:debit_cards": "yes", "shop": "convenience"}}, {"type": "node", "id": 8418907189, "lat": -6.3261466, "lon": 107.2923797}, {"type": "node", "id": 8418907190, "lat": -6.3261229, "lon": 107.292203}, {"type": "node", "id": 8418907191, "lat": -6.3259878, "lon": 107.2922253}, {"type": "node", "id": 8418907192, "lat": -6.3260168, "lon": 107.2924043}, {"type": "node", "id": 8418907198, "lat": -6.3290989, "lon": 107.2917882}, {"type": "node", "id": 8418907199, "lat": -6.3289807, "lon": 107.2918864}, {"type": "node", "id": 8418907213, "lat": -6.3291502, "lon": 107.2960613}, {"type": "node", "id": 8418907214, "lat": -6.3292767, "lon": 107.2962467}, {"type": "node", "id": 8418907215, "lat": -6.3294032, "lon": 107.2961593}, {"type": "node", "id": 8418907216, "lat": -6.3292767, "lon": 107.2959739}, {"type": "node", "id": 8418910017, "lat": -6.329163, "lon": 107.2958133}, {"type": "node", "id": 8418910018, "lat": -6.3290527, "lon": 107.2958676}, {"type": "node", "id": 8418910019, "lat": -6.3291532, "lon": 107.2960231}, {"type": "node", "id": 8418910020, "lat": -6.3292931, "lon": 107.2959404}, {"type": "node", "id": 8418910021, "lat": -6.3291986, "lon": 107.2958552}, {"type": "node", "id": 8420778152, "lat": -6.3209899, "lon": 107.0163518}, {"type": "node", "id": 8420778153, "lat": -6.3210091, "lon": 107.0164535}, {"type": "node", "id": 8420778154, "lat": -6.3208596, "lon": 107.0165317}, {"type": "node", "id": 8420778155, "lat": -6.3208131, "lon": 107.0164138}, {"type": "node", "id": 8420778156, "lat": -6.3209657, "lon": 107.0163529}, {"type": "node", "id": 8420778157, "lat": -6.3209975, "lon": 107.0164728}, {"type": "node", "id": 8420778158, "lat": -6.3209932, "lon": 107.016486}, {"type": "node", "id": 8420778170, "lat": -6.3212743, "lon": 107.0157953}, {"type": "node", "id": 8420778171, "lat": -6.3214382, "lon": 107.0157417}, {"type": "node", "id": 8420778172, "lat": -6.3214767, "lon": 107.0158611}, {"type": "node", "id": 8420778173, "lat": -6.3213128, "lon": 107.0159147}, {"type": "node", "id": 8516253163, "lat": -6.3341797, "lon": 107.1638162, "tags": {"amenity": "cafe", "brand": "Maxx", "cuisine": "coffee_shop", "name": "Maxx Coffee", "official_name": "Maxx Coffee", "takeaway": "yes"}}, {"type": "node", "id": 8595751434, "lat": -6.2790428, "lon": 107.0067807}, {"type": "node", "id": 8595751435, "lat": -6.2786682, "lon": 107.0068639}, {"type": "node", "id": 8602219914, "lat": -6.2875115, "lon": 107.0012156, "tags": {"amenity": "fast_food", "name": "Mie Ayam Jamin"}}, {"type": "node", "id": 8602236538, "lat": -6.2865177, "lon": 107.0026979, "tags": {"amenity": "fast_food", "name": "Gorengan"}}, {"type": "node", "id": 8602339265, "lat": -6.2873999, "lon": 107.006184}, {"type": "node", "id": 8602339266, "lat": -6.2874918, "lon": 107.0061357}, {"type": "node", "id": 8602339267, "lat": -6.2874092, "lon": 107.0059775}, {"type": "node", "id": 8602339268, "lat": -6.2873332, "lon": 107.0060325}, {"type": "node", "id": 8602982793, "lat": -6.2650672, "lon": 107.0085911}, {"type": "node", "id": 8602982794, "lat": -6.2651538, "lon": 107.0085611}, {"type": "node", "id": 8602982795, "lat": -6.2651863, "lon": 107.0086195}, {"type": "node", "id": 8603067737, "lat": -6.2655868, "lon": 107.0115701}, {"type": "node", "id": 8603067738, "lat": -6.2656685, "lon": 107.0116058}, {"type": "node", "id": 8603067739, "lat": -6.2655401, "lon": 107.0116868}, {"type": "node", "id": 8603067740, "lat": -6.2653962, "lon": 107.0119725}, {"type": "node", "id": 8603067741, "lat": -6.2654641, "lon": 107.0120047}, {"type": "node", "id": 8603067742, "lat": -6.2655028, "lon": 107.0119255}, {"type": "node", "id": 8603067743, "lat": -6.2654321, "lon": 107.0118907}, {"type": "node", "id": 8603067745, "lat": -6.2650762, "lon": 107.0106743, "tags": {"amenity": "restaurant", "name": "RM Anisa Jaya"}}, {"type": "node", "id": 8603067746, "lat": -6.2650949, "lon": 107.0106327, "tags": {"amenity": "restaurant", "name": "Mie Agung"}}, {"type": "node", "id": 8605414201, "lat": -6.2973668, "lon": 107.0174062, "tags": {"amenity": "restaurant", "name": "Bu Tris"}}, {"type": "node", "id": 8605414204, "lat": -6.2971402, "lon": 107.0170655}, {"type": "node", "id": 8605414205, "lat": -6.2969929, "lon": 107.0171131}, {"type": "node", "id": 8605414207, "lat": -6.2971036, "lon": 107.0169489}, {"type": "node", "id": 8605414208, "lat": -6.2969469, "lon": 107.0170012}, {"type": "node", "id": 8611944455, "lat": -6.2811468, "lon": 107.0062758, "tags": {"amenity": "restaurant", "name": "Bakso"}}, {"type": "node", "id": 8613942298, "lat": -6.2723454, "lon": 107.0027184}, {"type": "node", "id": 8613942299, "lat": -6.2722494, "lon": 107.00276}, {"type": "node", "id": 8613942301, "lat": -6.2722394, "lon": 107.0024468}, {"type": "node", "id": 8613942302, "lat": -6.2721461, "lon": 107.0024884}, {"type": "node", "id": 8616750713, "lat": -6.278702, "lon": 107.0253061}, {"type": "node", "id": 8616750714, "lat": -6.2788887, "lon": 107.0252645}, {"type": "node", "id": 8616750715, "lat": -6.27887, "lon": 107.0251478}, {"type": "node", "id": 8616750716, "lat": -6.2786767, "lon": 107.025176}, {"type": "node", "id": 8616862117, "lat": -6.278816, "lon": 107.0252913, "tags": {"amenity": "fast_food", "cuisine": "juice", "name": "Kabita"}}, {"type": "node", "id": 8616862118, "lat": -6.278852, "lon": 107.0252846, "tags": {"amenity": "fast_food", "name": "Gorengan"}}, {"type": "node", "id": 8620157667, "lat": -6.2698823, "lon": 107.0036885, "tags": {"amenity": "restaurant"}}, {"type": "node", "id": 8620535553, "lat": -6.2746194, "lon": 107.0048836}, {"type": "node", "id": 8620535554, "lat": -6.2747687, "lon": 107.0048407}, {"type": "node", "id": 8620535555, "lat": -6.2747407, "lon": 107.0047576}, {"type": "node", "id": 8620535556, "lat": -6.2745874, "lon": 107.0047978}, {"type": "node", "id": 8620634145, "lat": -6.270619, "lon": 107.006168, "tags": {"amenity": "restaurant", "name": "Warteg Barokah I"}}, {"type": "node", "id": 8624199520, "lat": -6.2982093, "lon": 107.0001125, "tags": {"addr:place": "RT 01/03", "addr:street": "Jalan Mandor Demong", "addr:subdistrict": "Mustika Sari", "amenity": "restaurant", "name": "Soto Mie Bogor A'Aden"}}, {"type": "node", "id": 8624199521, "lat": -6.298188, "lon": 107.0000294, "tags": {"amenity": "restaurant", "name": "RM Pancuran Tujuh"}}, {"type": "node", "id": 8639405434, "lat": -6.2729667, "lon": 107.0179149, "tags": {"amenity": "restaurant", "name": "Warteg"}}, {"type": "node", "id": 8674836965, "lat": -6.3445317, "lon": 107.2858307}, {"type": "node", "id": 8674836966, "lat": -6.3440536, "lon": 107.2859859}, {"type": "node", "id": 8674836967, "lat": -6.3440294, "lon": 107.2859051}, {"type": "node", "id": 8674836968, "lat": -6.3440042, "lon": 107.2858991}, {"type": "node", "id": 8674836969, "lat": -6.3440276, "lon": 107.2854766}, {"type": "node", "id": 8674836970, "lat": -6.3444717, "lon": 107.2855039}, {"type": "node", "id": 8674836971, "lat": -6.3445454, "lon": 107.2855755}, {"type": "node", "id": 8674836972, "lat": -6.3441874, "lon": 107.2855985}, {"type": "node", "id": 8674836973, "lat": -6.3444385, "lon": 107.2856038}, {"type": "node", "id": 8674836974, "lat": -6.3444305, "lon": 107.2857681}, {"type": "node", "id": 8674836975, "lat": -6.3441018, "lon": 107.2858777}, {"type": "node", "id": 8674836976, "lat": -6.3444695, "lon": 107.2855705}, {"type": "node", "id": 8674836977, "lat": -6.3441752, "lon": 107.2858105}, {"type": "node", "id": 8674836978, "lat": -6.3441033, "lon": 107.2858048}, {"type": "node", "id": 8674837005, "lat": -6.3488747, "lon": 107.2844844}, {"type": "node", "id": 8674837006, "lat": -6.3493864, "lon": 107.284464}, {"type": "node", "id": 8674837007, "lat": -6.3486028, "lon": 107.2867695}, {"type": "node", "id": 8674837008, "lat": -6.3484868, "lon": 107.286387}, {"type": "node", "id": 8674837009, "lat": -6.3484707, "lon": 107.2860171}, {"type": "node", "id": 8674837010, "lat": -6.3484989, "lon": 107.2856715}, {"type": "node", "id": 8674837011, "lat": -6.3485474, "lon": 107.2853747}, {"type": "node", "id": 8674837012, "lat": -6.3486121, "lon": 107.285143}, {"type": "node", "id": 8674837013, "lat": -6.3487414, "lon": 107.284769}, {"type": "node", "id": 8674837014, "lat": -6.3469247, "lon": 107.2809829}, {"type": "node", "id": 8674837015, "lat": -6.3469664, "lon": 107.2810366}, {"type": "node", "id": 8674837016, "lat": -6.3469455, "lon": 107.2810833}, {"type": "node", "id": 8674838017, "lat": -6.3470268, "lon": 107.2812094}, {"type": "node", "id": 8674838018, "lat": -6.3468249, "lon": 107.2812257}, {"type": "node", "id": 8674838019, "lat": -6.3467947, "lon": 107.2811837}, {"type": "node", "id": 8674838020, "lat": -6.3472227, "lon": 107.2811957}, {"type": "node", "id": 8674838021, "lat": -6.3471201, "lon": 107.2812668}, {"type": "node", "id": 8674838022, "lat": -6.3471335, "lon": 107.2812864}, {"type": "node", "id": 8674838023, "lat": -6.3467344, "lon": 107.2813425}, {"type": "node", "id": 8674838024, "lat": -6.3466299, "lon": 107.281193}, {"type": "node", "id": 8674838025, "lat": -6.3468504, "lon": 107.2808591}, {"type": "node", "id": 8674838026, "lat": -6.3467436, "lon": 107.2807167}, {"type": "node", "id": 8674838027, "lat": -6.3466489, "lon": 107.2802251}, {"type": "node", "id": 8674838028, "lat": -6.3467702, "lon": 107.2802014}, {"type": "node", "id": 8674838029, "lat": -6.3468597, "lon": 107.2806653}, {"type": "node", "id": 8744306649, "lat": -6.3464525, "lon": 107.3004383, "tags": {"addr:city": "Karawang", "addr:housenumber": "KGV 2", "addr:street": "Jl. Bahama 2", "amenity": "cafe", "cuisine": "coffee_shop", "internet_access": "wlan", "internet_access:fee": "customers", "name": "KGV 2 Blok E2/10", "opening_hours": "Mo-Su 09:00-21:00", "opening_hours:covid19": "Mo-Su 08:00-20:00", "outdoor_seating": "yes"}}, {"type": "node", "id": 8848450030, "lat": -6.3350066, "lon": 107.0102435}, {"type": "node", "id": 8848450031, "lat": -6.3350168, "lon": 107.0103615}, {"type": "node", "id": 8848450032, "lat": -6.3349168, "lon": 107.0103703}, {"type": "node", "id": 8848450033, "lat": -6.3349065, "lon": 107.0102523}, {"type": "node", "id": 8848450034, "lat": -6.3358902, "lon": 107.0101897}, {"type": "node", "id": 8848450035, "lat": -6.3358978, "lon": 107.0103652}, {"type": "node", "id": 8848450036, "lat": -6.3359827, "lon": 107.0103615}, {"type": "node", "id": 8848450037, "lat": -6.3359751, "lon": 107.010186}, {"type": "node", "id": 8850373090, "lat": -6.3295845, "lon": 107.0034045}, {"type": "node", "id": 8850373091, "lat": -6.3296595, "lon": 107.0035901}, {"type": "node", "id": 8850373092, "lat": -6.3295683, "lon": 107.0036275}, {"type": "node", "id": 8850373093, "lat": -6.3294932, "lon": 107.0034419}, {"type": "node", "id": 8865767022, "lat": -6.2920007, "lon": 107.0035766, "tags": {"brand": "Indomaret", "brand:wikidata": "Q4262825", "brand:wikipedia": "en:Indomaret", "name": "Indomaret", "shop": "convenience"}}, {"type": "node", "id": 8865777398, "lat": -6.2813067, "lon": 107.0061437, "tags": {"brand": "Alfamart", "brand:wikidata": "Q23745600", "brand:wikipedia": "en:Alfamart", "name": "Alfamart", "shop": "supermarket"}}, {"type": "node", "id": 8929779526, "lat": -6.2769452, "lon": 107.0101175}, {"type": "node", "id": 8929779542, "lat": -6.2770368, "lon": 107.0103018}, {"type": "node", "id": 8929779543, "lat": -6.2769756, "lon": 107.0103326}, {"type": "node", "id": 8929779544, "lat": -6.2768989, "lon": 107.0101538}, {"type": "node", "id": 8934310863, "lat": -6.363036, "lon": 107.0933368, "tags": {"addr:city": "Kab. Bekasi", "addr:housenumber": "Jayasampurna Residence Blok B2 No. 21, Serang Baru", "addr:postcode": "17330", "addr:street": "Jln. Kongsi 2", "brand": "IT Center ID", "currency:IDR": "yes", "description": "IT Services for Online and Offline Services", "email": "dev@itcenter.id", "name": "IT Center ID | JSR B2/21", "opening_hours": "24/7", "payment:cash": "yes", "payment:debit_cards": "yes", "phone": "+6282260906341", "shop": "supermarket", "website": "https://itcenter.id"}}, {"type": "node", "id": 9052392543, "lat": -6.4128427, "lon": 107.0115122, "tags": {"addr:street": "Jl. Gandoang", "brand": "Indomaret", "brand:wikidata": "Q4262825", "brand:wikipedia": "en:Indomaret", "name": "Indomaret", "shop": "convenience"}}, {"type": "node", "id": 9052392544, "lat": -6.412515, "lon": 107.0116165, "tags": {"addr:street": "Jalan Cileungsi - Jonggol", "brand": "Alfamart", "brand:wikidata": "Q23745600", "brand:wikipedia": "en:Alfamart", "name": "Alfamart", "shop": "convenience"}}, {"type": "node", "id": 9052408556, "lat": -6.4198242, "lon": 107.0059749, "tags": {"addr:street": "Jl. Mampir Timur", "brand": "Alfamart", "brand:wikidata": "Q23745600", "brand:wikipedia": "en:Alfamart", "name": "Alfamart", "shop": "convenience"}}, {"type": "node", "id": 9126463143, "lat": -6.3279268, "lon": 107.1262837, "tags": {"name": "Zuri Express", "tourism": "hotel"}}, {"type": "node", "id": 9203589945, "lat": -6.2974907, "lon": 107.2979267}, {"type": "node", "id": 9203589946, "lat": -6.2973128, "lon": 107.29804}, {"type": "node", "id": 9203589947, "lat": -6.2974818, "lon": 107.2982349}, {"type": "node", "id": 9203589948, "lat": -6.2976468, "lon": 107.2981186}, {"type": "node", "id": 9288336453, "lat": -6.28804, "lon": 107.0880428}, {"type": "node", "id": 9288336454, "lat": -6.2888838, "lon": 107.0877823}, {"type": "node", "id": 9288336455, "lat": -6.2885892, "lon": 107.0868164}, {"type": "node", "id": 9288336456, "lat": -6.2877454, "lon": 107.0870769}, {"type": "node", "id": 9288528764, "lat": -6.2733263, "lon": 107.0967169}, {"type": "node", "id": 9288528765, "lat": -6.2734223, "lon": 107.0969905}, {"type": "node", "id": 9288528766, "lat": -6.2733244, "lon": 107.0970252}, {"type": "node", "id": 9288528767, "lat": -6.2732284, "lon": 107.0967516}, {"type": "node", "id": 9288792210, "lat": -6.3654489, "lon": 107.1788751}, {"type": "node", "id": 9288792211, "lat": -6.3654529, "lon": 107.1789162}, {"type": "node", "id": 9288792212, "lat": -6.365257, "lon": 107.1789356}, {"type": "node", "id": 9288792213, "lat": -6.3654685, "lon": 107.1788732}, {"type": "node", "id": 9288792214, "lat": -6.3654589, "lon": 107.1787749}, {"type": "node", "id": 9288792215, "lat": -6.3652433, "lon": 107.1787963}, {"type": "node", "id": 9289259171, "lat": -6.300535, "lon": 107.1520709}, {"type": "node", "id": 9289259172, "lat": -6.3007402, "lon": 107.1520682}, {"type": "node", "id": 9289259173, "lat": -6.300737, "lon": 107.1518174}, {"type": "node", "id": 9289259174, "lat": -6.3005317, "lon": 107.1518201}, {"type": "node", "id": 9289791606, "lat": -6.2568104, "lon": 107.1664131}, {"type": "node", "id": 9289791607, "lat": -6.2568875, "lon": 107.1667236}, {"type": "node", "id": 9289791608, "lat": -6.2570689, "lon": 107.1666812}, {"type": "node", "id": 9289791609, "lat": -6.2569836, "lon": 107.1663576}, {"type": "node", "id": 9459551336, "lat": -6.3577243, "lon": 107.1276438, "tags": {"brand": "Indomaret", "name": "Indomaret", "shop": "convenience", "wheelchair": "no"}}, {"type": "node", "id": 9468667975, "lat": -6.3416094, "lon": 107.120366, "tags": {"amenity": "restaurant", "cuisine": "indonesian", "delivery": "Gofood; Grabfood", "name": "RM Minang Sepakat", "takeaway": "yes", "wheelchair": "no"}}, {"type": "node", "id": 9468735334, "lat": -6.3422939, "lon": 107.1196572}, {"type": "node", "id": 9468735335, "lat": -6.3424405, "lon": 107.1199787}, {"type": "node", "id": 9468735336, "lat": -6.3422299, "lon": 107.1196574}, {"type": "node", "id": 9468735337, "lat": -6.3424386, "lon": 107.1194992}, {"type": "node", "id": 9468735338, "lat": -6.3422933, "lon": 107.1194998}, {"type": "node", "id": 9468735339, "lat": -6.3422312, "lon": 107.1199795}, {"type": "node", "id": 9473521365, "lat": -6.3568328, "lon": 107.1286245, "tags": {"brand": "Alfamart", "name": "Alfamart", "shop": "supermarket"}}, {"type": "node", "id": 9481396551, "lat": -6.4997075, "lon": 107.0335998}, {"type": "node", "id": 9481396552, "lat": -6.4997801, "lon": 107.0338181}, {"type": "node", "id": 9481396553, "lat": -6.4992218, "lon": 107.034019}, {"type": "node", "id": 9481396554, "lat": -6.4991217, "lon": 107.0336942}, {"type": "node", "id": 9481396563, "lat": -6.4994586, "lon": 107.033662}, {"type": "node", "id": 9510518452, "lat": -6.3198746, "lon": 107.0139921}, {"type": "node", "id": 9510518453, "lat": -6.3198559, "lon": 107.0139478}, {"type": "node", "id": 9510518454, "lat": -6.3198949, "lon": 107.0139392}, {"type": "node", "id": 9510518455, "lat": -6.3195443, "lon": 107.0140974}, {"type": "node", "id": 9510518456, "lat": -6.3193907, "lon": 107.0138513}, {"type": "node", "id": 9510518457, "lat": -6.3198226, "lon": 107.0137306}, {"type": "node", "id": 9550338364, "lat": -6.261773, "lon": 107.0009051}, {"type": "node", "id": 9550338365, "lat": -6.261678, "lon": 107.0009944}, {"type": "node", "id": 9550338366, "lat": -6.2617322, "lon": 107.0009954}, {"type": "node", "id": 9550338367, "lat": -6.2617808, "lon": 107.0011006}, {"type": "node", "id": 9550338368, "lat": -6.2617805, "lon": 107.0011192}, {"type": "node", "id": 9550338369, "lat": -6.2624074, "lon": 107.0009801}, {"type": "node", "id": 9550338370, "lat": -6.2624601, "lon": 107.0009767}, {"type": "node", "id": 9550338375, "lat": -6.2619437, "lon": 107.0011228}, {"type": "node", "id": 9550338376, "lat": -6.2619471, "lon": 107.0011538}, {"type": "node", "id": 9647820401, "lat": -6.3171517, "lon": 107.1396328}, {"type": "node", "id": 9647820402, "lat": -6.3171805, "lon": 107.1397131}, {"type": "node", "id": 9647820403, "lat": -6.3167955, "lon": 107.1398528}, {"type": "node", "id": 9647820404, "lat": -6.3167667, "lon": 107.1397725}, {"type": "node", "id": 9647824742, "lat": -6.2764085, "lon": 107.0447096}, {"type": "node", "id": 9647824743, "lat": -6.2763909, "lon": 107.0445993}, {"type": "node", "id": 9647824744, "lat": -6.2765946, "lon": 107.0445665}, {"type": "node", "id": 9647824745, "lat": -6.2766122, "lon": 107.0446768}, {"type": "node", "id": 9647874220, "lat": -6.312459, "lon": 107.1406157}, {"type": "node", "id": 9647874221, "lat": -6.3126989, "lon": 107.1406116}, {"type": "node", "id": 9647874222, "lat": -6.3126819, "lon": 107.1395852}, {"type": "node", "id": 9647874223, "lat": -6.312442, "lon": 107.1395892}, {"type": "node", "id": 9647898733, "lat": -6.327353, "lon": 107.1267577}, {"type": "node", "id": 9647898734, "lat": -6.3272895, "lon": 107.1267229}, {"type": "node", "id": 9647898735, "lat": -6.3272575, "lon": 107.1267513}, {"type": "node", "id": 9647898736, "lat": -6.3272344, "lon": 107.1267721}, {"type": "node", "id": 9647898737, "lat": -6.327185, "lon": 107.1268161}, {"type": "node", "id": 9647898738, "lat": -6.3271602, "lon": 107.1268645}, {"type": "node", "id": 9647898739, "lat": -6.3271779, "lon": 107.1268225}, {"type": "node", "id": 9647898740, "lat": -6.3271557, "lon": 107.1268686}, {"type": "node", "id": 9647898741, "lat": -6.3271135, "lon": 107.1268212}, {"type": "node", "id": 9647898742, "lat": -6.3271487, "lon": 107.1267896}, {"type": "node", "id": 9647898743, "lat": -6.327161, "lon": 107.1267892}, {"type": "node", "id": 9647898744, "lat": -6.3272102, "lon": 107.1267449}, {"type": "node", "id": 9647898745, "lat": -6.3272352, "lon": 107.1267262}, {"type": "node", "id": 9647898746, "lat": -6.327267, "lon": 107.1266975}, {"type": "node", "id": 9647898747, "lat": -6.3273782, "lon": 107.1267351}, {"type": "node", "id": 9647898748, "lat": -6.3274153, "lon": 107.1267769}, {"type": "node", "id": 9647898749, "lat": -6.3273076, "lon": 107.1267066}, {"type": "node", "id": 9647898750, "lat": -6.3274279, "lon": 107.126843}, {"type": "node", "id": 9647898751, "lat": -6.3272685, "lon": 107.1269864}, {"type": "node", "id": 9647990544, "lat": -6.2805384, "lon": 107.0466001}, {"type": "node", "id": 9647990545, "lat": -6.280497, "lon": 107.0466303}, {"type": "node", "id": 9647990546, "lat": -6.2804614, "lon": 107.0465842}, {"type": "node", "id": 9647990547, "lat": -6.2805018, "lon": 107.0465527}, {"type": "node", "id": 9647990548, "lat": -6.2806143, "lon": 107.0465408}, {"type": "node", "id": 9647990549, "lat": -6.2801139, "lon": 107.0469297}, {"type": "node", "id": 9647990550, "lat": -6.2802626, "lon": 107.0471222}, {"type": "node", "id": 9647990551, "lat": -6.2807619, "lon": 107.046732}, {"type": "node", "id": 9647990552, "lat": -6.2791254, "lon": 107.0463688}, {"type": "node", "id": 9647990553, "lat": -6.2791189, "lon": 107.0464321}, {"type": "node", "id": 9647990554, "lat": -6.2792846, "lon": 107.0463934}, {"type": "node", "id": 9647990555, "lat": -6.2790624, "lon": 107.0463432}, {"type": "node", "id": 9647990556, "lat": -6.2790956, "lon": 107.0463219}, {"type": "node", "id": 9647990557, "lat": -6.2792273, "lon": 107.0463033}, {"type": "node", "id": 9647990558, "lat": -6.2791128, "lon": 107.0479296}, {"type": "node", "id": 9647990559, "lat": -6.2791294, "lon": 107.0479664}, {"type": "node", "id": 9647990560, "lat": -6.279127, "lon": 107.0480068}, {"type": "node", "id": 9647990561, "lat": -6.2790719, "lon": 107.0480625}, {"type": "node", "id": 9647990562, "lat": -6.2790318, "lon": 107.048065}, {"type": "node", "id": 9647990563, "lat": -6.2789951, "lon": 107.0480485}, {"type": "node", "id": 9647990564, "lat": -6.2789702, "lon": 107.0480167}, {"type": "node", "id": 9647990565, "lat": -6.2789747, "lon": 107.0479383}, {"type": "node", "id": 9647990566, "lat": -6.2790415, "lon": 107.0478975}, {"type": "node", "id": 9647990567, "lat": -6.2790022, "lon": 107.0479081}, {"type": "node", "id": 9647990568, "lat": -6.2789628, "lon": 107.0479769}, {"type": "node", "id": 9647990569, "lat": -6.2791063, "lon": 107.0480415}, {"type": "node", "id": 9647990570, "lat": -6.279081, "lon": 107.0479047}, {"type": "node", "id": 9648009030, "lat": -6.3162103, "lon": 107.1370607}, {"type": "node", "id": 9648009031, "lat": -6.316089, "lon": 107.1371318}, {"type": "node", "id": 9648009032, "lat": -6.3162849, "lon": 107.1374702}, {"type": "node", "id": 9648009033, "lat": -6.3164062, "lon": 107.1373992}, {"type": "node", "id": 9734116314, "lat": -6.337064, "lon": 107.1662712, "tags": {"branch": "Meikarta District 9", "name": "Hyfresh", "shop": "supermarket"}}, {"type": "node", "id": 9737118039, "lat": -6.2614251, "lon": 107.0016174, "tags": {"name": "Hotel 88 Bekasi", "tourism": "hotel"}}, {"type": "node", "id": 9737152592, "lat": -6.2566921, "lon": 107.0211774, "tags": {"name": "Versa Hotel", "tourism": "hotel"}}, {"type": "node", "id": 9749264913, "lat": -6.325457, "lon": 107.1245203}, {"type": "node", "id": 9749264914, "lat": -6.3255752, "lon": 107.1248555}, {"type": "node", "id": 9749264915, "lat": -6.3257687, "lon": 107.1247942}, {"type": "node", "id": 9749264916, "lat": -6.3256325, "lon": 107.1244698}, {"type": "node", "id": 9749272121, "lat": -6.3249626, "lon": 107.1241562}, {"type": "node", "id": 9749272122, "lat": -6.3250486, "lon": 107.1243869}, {"type": "node", "id": 9749272123, "lat": -6.3251525, "lon": 107.124358}, {"type": "node", "id": 9749272124, "lat": -6.3250629, "lon": 107.1241129}, {"type": "node", "id": 9751125400, "lat": -6.2554774, "lon": 107.1451559, "tags": {"branch": "Stasiun Cikarang", "brand": "Roti'O", "brand:wikidata": "Q124354233", "name": "Roti'O", "shop": "bakery"}}, {"type": "node", "id": 9751280144, "lat": -6.2942373, "lon": 107.1452078, "tags": {"name": "Hotel Holiday Inn Cikarang Jababeka", "tourism": "hotel"}}, {"type": "node", "id": 9751286922, "lat": -6.2950486, "lon": 107.1453369, "tags": {"name": "Oakwood Residence Cikarang", "tourism": "hotel"}}, {"type": "node", "id": 9751348471, "lat": -6.3057218, "lon": 107.2785069}, {"type": "node", "id": 9751349330, "lat": -6.2991204, "lon": 107.149876, "tags": {"name": "Living Plaza Jababeka", "shop": "supermarket"}}, {"type": "node", "id": 9751551425, "lat": -6.3274116, "lon": 107.2922211, "tags": {"amenity": "restaurant", "name": "Gokana Ramen & Tepan Mall Kcp Karawng"}}, {"type": "node", "id": 9753648129, "lat": -6.294943, "lon": 107.1347928, "tags": {"name": "OYO 2942 Apartement River View Jababeka", "tourism": "hotel"}}, {"type": "node", "id": 9753962885, "lat": -6.269592, "lon": 107.0887723, "tags": {"amenity": "fast_food", "branch": "Cibitung Sosro", "brand": "McDonald's", "brand:wikidata": "Q38076", "cuisine": "burger", "name": "McDonald's", "takeaway": "yes"}}, {"type": "node", "id": 9755188132, "lat": -6.3193464, "lon": 107.1419019, "tags": {"amenity": "restaurant", "name": "Warkop Nitisuka Pasirsari"}}, {"type": "node", "id": 9755203225, "lat": -6.2654184, "lon": 107.0727506, "tags": {"alt_name": "Kentucky Fried Chicken", "amenity": "fast_food", "branch": "Metland Tambun", "brand": "KFC", "brand:wikidata": "Q524757", "cuisine": "chicken", "name": "KFC", "takeaway": "yes"}}, {"type": "node", "id": 9755214487, "lat": -6.2632204, "lon": 107.0826558, "tags": {"amenity": "restaurant", "name": "Warteg Lala"}}, {"type": "node", "id": 9776978295, "lat": -6.2959395, "lon": 107.0461021, "tags": {"amenity": "food_court", "source": "Survey_POI_UNDP_2022"}}, {"type": "node", "id": 9797940688, "lat": -6.3456949, "lon": 107.1657618}, {"type": "node", "id": 9797940689, "lat": -6.3455898, "lon": 107.1657056}, {"type": "node", "id": 9797940690, "lat": -6.345609, "lon": 107.1659245}, {"type": "node", "id": 9797940691, "lat": -6.3457329, "lon": 107.1659908}, {"type": "node", "id": 9797940692, "lat": -6.3458821, "lon": 107.1657083}, {"type": "node", "id": 9797940693, "lat": -6.3456531, "lon": 107.1655858}, {"type": "node", "id": 9810471496, "lat": -6.2919444, "lon": 107.0683658, "tags": {"name": "Odua STTD Cibitung", "stars": "3", "tourism": "hotel"}}, {"type": "node", "id": 9834960948, "lat": -6.2933475, "lon": 107.0362701}, {"type": "node", "id": 9834960949, "lat": -6.2934005, "lon": 107.0361412}, {"type": "node", "id": 9834960950, "lat": -6.2934341, "lon": 107.0363061}, {"type": "node", "id": 9834960951, "lat": -6.2934871, "lon": 107.0361773}, {"type": "node", "id": 9834960952, "lat": -6.2913689, "lon": 107.0350856}, {"type": "node", "id": 9834960953, "lat": -6.2914485, "lon": 107.0349674}, {"type": "node", "id": 9834960954, "lat": -6.2914409, "lon": 107.0351347}, {"type": "node", "id": 9834960955, "lat": -6.2915205, "lon": 107.0350164}, {"type": "node", "id": 9840663942, "lat": -6.3062604, "lon": 107.2773762}, {"type": "node", "id": 9840663943, "lat": -6.3060725, "lon": 107.2774848}, {"type": "node", "id": 9840663944, "lat": -6.3059829, "lon": 107.277328}, {"type": "node", "id": 9840663945, "lat": -6.3061709, "lon": 107.2772193}, {"type": "node", "id": 9845768117, "lat": -6.347054, "lon": 107.1818384, "tags": {"addr:street": "Jalana Ganesha Boulevard", "amenity": "restaurant", "cuisine": "indonesian", "name": "Alam Sari"}}, {"type": "node", "id": 9849546017, "lat": -6.2717503, "lon": 107.26473, "tags": {"name": "Indomaret", "opening_hours": "Mo-Su 07:00-22:00", "shop": "convenience"}}, {"type": "node", "id": 9852008112, "lat": -6.3459347, "lon": 107.1655353}, {"type": "node", "id": 9852008113, "lat": -6.3458863, "lon": 107.165626}, {"type": "node", "id": 9852008114, "lat": -6.3456968, "lon": 107.1655236}, {"type": "node", "id": 9852008115, "lat": -6.3457452, "lon": 107.1654329}, {"type": "node", "id": 9931310308, "lat": -6.3170898, "lon": 107.0252591, "tags": {"addr:city": "Bekasi", "addr:housenumber": "77", "addr:postcode": "17155", "addr:street": "Jl. WR. Supratman, RT.001/RW.007, Cimuning, Kec. Mustika Jaya", "amenity": "cafe", "cuisine": "coffee_shop", "name": "NgopiMura", "opening_hours": "Tu-Su 10:00-23:00"}}, {"type": "node", "id": 10024710967, "lat": -6.2899776, "lon": 107.0840051}, {"type": "node", "id": 10024710968, "lat": -6.2901631, "lon": 107.0839367}, {"type": "node", "id": 10172948804, "lat": -6.3189242, "lon": 107.2925958, "tags": {"addr:housenumber": "Ruko Casabella Jl. Galuh Mas Raya No.6, RW.7, Sukaharja, Telukjambe Timur, Karawang, Jawa Barat 41361", "amenity": "restaurant", "cuisine": "seafood", "diet:halal": "yes", "name": "Ratu Galuh Seafood", "phone": "+62 811 9320 680"}}, {"type": "node", "id": 10235984670, "lat": -6.3208826, "lon": 107.0159844, "tags": {"amenity": "fast_food", "cuisine": "chicken", "name": "Chigo by Kenangan"}}, {"type": "node", "id": 10235984673, "lat": -6.3207846, "lon": 107.0160935, "tags": {"amenity": "fast_food", "cuisine": "fish_and_chips", "name": "Pempek Gaby Express"}}, {"type": "node", "id": 10235984675, "lat": -6.3207221, "lon": 107.0161586, "tags": {"amenity": "fast_food", "name": "Crisbar"}}, {"type": "node", "id": 10235984676, "lat": -6.3206574, "lon": 107.0162206, "tags": {"amenity": "restaurant", "cuisine": "seafood", "name": "Pecel Lele Eka Jaya"}}, {"type": "node", "id": 10235984679, "lat": -6.3204768, "lon": 107.0163919, "tags": {"amenity": "cafe", "name": "Kopi Kenangan"}}, {"type": "node", "id": 10255697988, "lat": -6.2954403, "lon": 107.001332}, {"type": "node", "id": 10255697989, "lat": -6.2955603, "lon": 107.0012522}, {"type": "node", "id": 10255697990, "lat": -6.2955029, "lon": 107.0011604}, {"type": "node", "id": 10255697991, "lat": -6.2953936, "lon": 107.0012368}, {"type": "node", "id": 10542940216, "lat": -6.3576096, "lon": 107.0899154, "tags": {"addr:city": "kabupaten Bekasi", "addr:housenumber": "Perum Taman Cikarang Indah 2 Blok F15 No10", "addr:postcode": "17530", "addr:street": "Jalan Garuda 7", "name": "Warung Mama Naya", "opening_hours": "Mo-Su 06:00-22:00", "payment:cash": "yes", "shop": "supermarket"}}, {"type": "node", "id": 10561523172, "lat": -6.4250057, "lon": 107.014353}, {"type": "node", "id": 10561523173, "lat": -6.4248511, "lon": 107.0144072}, {"type": "node", "id": 10561523174, "lat": -6.4247393, "lon": 107.0140847}, {"type": "node", "id": 10561523175, "lat": -6.4248939, "lon": 107.0140304}, {"type": "node", "id": 10561523283, "lat": -6.4276319, "lon": 107.0069612}, {"type": "node", "id": 10561523284, "lat": -6.4277784, "lon": 107.0069488}, {"type": "node", "id": 10561523285, "lat": -6.4277734, "lon": 107.0068897}, {"type": "node", "id": 10561523286, "lat": -6.427627, "lon": 107.0069021}, {"type": "node", "id": 10561523287, "lat": -6.4275955, "lon": 107.008205}, {"type": "node", "id": 10561523288, "lat": -6.4274356, "lon": 107.0082268}, {"type": "node", "id": 10561523289, "lat": -6.427452, "lon": 107.0083487}, {"type": "node", "id": 10561523290, "lat": -6.4276119, "lon": 107.0083269}, {"type": "node", "id": 10561669283, "lat": -6.2896827, "lon": 107.0000454, "tags": {"amenity": "restaurant", "name": "Mie Ayam Bakso Echo Barokah"}}, {"type": "node", "id": 10613796341, "lat": -6.2659234, "lon": 107.1473443, "tags": {"brand": "Indomaret", "name": "Indomaret", "shop": "convenience", "wheelchair": "limited"}}, {"type": "node", "id": 10627843179, "lat": -6.3418424, "lon": 107.1204518, "tags": {"brand": "Alfamart", "name": "Alfamart", "shop": "convenience"}}, {"type": "node", "id": 10627843180, "lat": -6.3416817, "lon": 107.1204236, "tags": {"brand": "Indomaret", "name": "Indomaret", "shop": "convenience"}}, {"type": "node", "id": 10628055515, "lat": -6.3417147, "lon": 107.1201173, "tags": {"name": "Amanda Brownies", "shop": "bakery"}}, {"type": "node", "id": 10744399591, "lat": -6.2778152, "lon": 107.0464575, "tags": {"addr:city": "Bekasi", "addr:housenumber": "Grand Wisata", "addr:postcode": "17510", "addr:street": "Jalan Boulevard Grand Wisata", "amenity": "cafe", "bar": "yes", "cuisine": "coffee_shop", "internet_access": "yes", "internet_access:fee": "customers", "internet_access:ssid": "UPNORMAL CAFE", "name": "warung upnormal", "opening_hours": "Mo-Su 08:00-23:00", "outdoor_seating": "yes", "phone": "08132457244"}}, {"type": "node", "id": 10744584761, "lat": -6.2592466, "lon": 107.0549706, "tags": {"amenity": "cafe", "cuisine": "coffee_shop;indonesian", "internet_access": "yes", "name": "Kopi Oi", "outdoor_seating": "yes"}}, {"type": "node", "id": 10748192021, "lat": -6.3166534, "lon": 107.0201429, "tags": {"addr:city": "Kota Bekasi", "addr:postcode": "17423", "addr:street": "Jalan Raya Zamrud Selatan", "name": "Intermedia Book Store", "shop": "supermarket"}}, {"type": "node", "id": 10869895977, "lat": -6.2905157, "lon": 107.0140511, "tags": {"shop": "convenience"}}, {"type": "node", "id": 10965533436, "lat": -6.2863773, "lon": 107.0025858, "tags": {"name": "Warkop Zaskia", "shop": "coffee"}}, {"type": "node", "id": 10965533438, "lat": -6.2863609, "lon": 107.0025027, "tags": {"addr:street": "Jalan Lumbu Utara", "amenity": "restaurant", "name": "Sate Padang"}}, {"type": "node", "id": 11006934130, "lat": -6.284776, "lon": 107.0024605, "tags": {"amenity": "restaurant", "name": "Soto Ayam Laa-PINDO"}}, {"type": "node", "id": 11006934131, "lat": -6.284159, "lon": 107.0025364, "tags": {"shop": "convenience"}}, {"type": "node", "id": 11006934132, "lat": -6.2829665, "lon": 107.0028536, "tags": {"shop": "convenience"}}, {"type": "node", "id": 11006934134, "lat": -6.2821895, "lon": 107.0028817, "tags": {"brand": "Indomaret", "brand:wikidata": "Q4262825", "name": "Indomaret", "shop": "convenience"}}, {"type": "node", "id": 11029951786, "lat": -6.2688452, "lon": 107.0066069}, {"type": "node", "id": 11029951787, "lat": -6.2688724, "lon": 107.0067351}, {"type": "node", "id": 11029951788, "lat": -6.2690074, "lon": 107.0067018}, {"type": "node", "id": 11029951789, "lat": -6.2689795, "lon": 107.0065758}, {"type": "node", "id": 11055941830, "lat": -6.2693207, "lon": 107.0072509, "tags": {"name": "Ucok", "shop": "convenience"}}, {"type": "node", "id": 11114659113, "lat": -6.2901383, "lon": 107.0838685, "tags": {"entrance": "main"}}, {"type": "node", "id": 11114659122, "lat": -6.2899914, "lon": 107.0838487}, {"type": "node", "id": 11114659123, "lat": -6.2899951, "lon": 107.0838587}, {"type": "node", "id": 11114659124, "lat": -6.289929, "lon": 107.0838717}, {"type": "node", "id": 11114659125, "lat": -6.2901182, "lon": 107.0838133}, {"type": "node", "id": 11114659140, "lat": -6.2910173, "lon": 107.0827345}, {"type": "node", "id": 11114659141, "lat": -6.2906394, "lon": 107.0828739}, {"type": "node", "id": 11114659142, "lat": -6.2906868, "lon": 107.0830038}, {"type": "node", "id": 11114659143, "lat": -6.2910646, "lon": 107.0828645}, {"type": "node", "id": 11175130702, "lat": -6.26963, "lon": 107.0382966}, {"type": "node", "id": 11175130703, "lat": -6.2696731, "lon": 107.0382902}, {"type": "node", "id": 11175130704, "lat": -6.269655, "lon": 107.038166}, {"type": "node", "id": 11175130705, "lat": -6.2696119, "lon": 107.0381724}, {"type": "node", "id": 11175130706, "lat": -6.2696327, "lon": 107.0383154}, {"type": "node", "id": 11175130707, "lat": -6.2695007, "lon": 107.0383349}, {"type": "node", "id": 11175130708, "lat": -6.2694771, "lon": 107.0381729}, {"type": "node", "id": 11175130709, "lat": -6.2696091, "lon": 107.0381534}, {"type": "node", "id": 11175130710, "lat": -6.2684893, "lon": 107.0367949, "tags": {"amenity": "food_court", "name": "Pojok Kuliner 19"}}, {"type": "node", "id": 11175130711, "lat": -6.2686373, "lon": 107.0372951, "tags": {"name": "Indomaret Point", "shop": "convenience"}}, {"type": "node", "id": 11175130712, "lat": -6.2690159, "lon": 107.0371194, "tags": {"name": "Indomaret", "shop": "convenience"}}, {"type": "node", "id": 11175130713, "lat": -6.2688919, "lon": 107.0371436, "tags": {"amenity": "restaurant", "cuisine": "indonesian", "name": "Restoran Simpang Raya"}}, {"type": "node", "id": 11175130714, "lat": -6.2687853, "lon": 107.0363013, "tags": {"name": "Holland Bakery", "shop": "bakery"}}, {"type": "node", "id": 11175130716, "lat": -6.2688439, "lon": 107.0368271, "tags": {"amenity": "fast_food", "brand": "Burger King", "brand:wikidata": "Q177054", "cuisine": "burger", "name": "Burger King", "takeaway": "yes"}}, {"type": "node", "id": 11175130717, "lat": -6.2687853, "lon": 107.0366326, "tags": {"amenity": "restaurant", "cuisine": "american", "name": "Dunkin' Donuts"}}, {"type": "node", "id": 11175130719, "lat": -6.268612, "lon": 107.0365857, "tags": {"amenity": "restaurant", "cuisine": "indonesian", "name": "Solaria"}}, {"type": "node", "id": 11175130720, "lat": -6.2688319, "lon": 107.036418, "tags": {"alt_name": "Kentucky Fried Chicken", "amenity": "fast_food", "brand": "KFC", "brand:wikidata": "Q524757", "brand:wikipedia": "en:KFC", "cuisine": "chicken", "name": "KFC", "takeaway": "yes"}}, {"type": "node", "id": 11175130721, "lat": -6.2689679, "lon": 107.0363805, "tags": {"amenity": "cafe", "name": "Starbucks"}}, {"type": "node", "id": 11175130722, "lat": -6.2689399, "lon": 107.0362236, "tags": {"amenity": "fast_food", "cuisine": "american", "name": "A&W"}}, {"type": "node", "id": 11175159073, "lat": -6.2713851, "lon": 107.0391917, "tags": {"amenity": "restaurant", "cuisine": "indonesian", "name": "Restoran Simpang Raya"}}, {"type": "node", "id": 11175159074, "lat": -6.2713202, "lon": 107.0390023, "tags": {"amenity": "cafe", "name": "Batavia Cafe"}}, {"type": "node", "id": 11175159075, "lat": -6.2714501, "lon": 107.0393811, "tags": {"name": "Alfamart", "shop": "convenience"}}, {"type": "node", "id": 11175159076, "lat": -6.2712552, "lon": 107.0388129, "tags": {"name": "Indomaret", "shop": "convenience"}}, {"type": "node", "id": 11175159077, "lat": -6.2715151, "lon": 107.0395706, "tags": {"name": "Indomaret Fresh", "shop": "convenience"}}, {"type": "node", "id": 11199441705, "lat": -6.2882806, "lon": 107.0008164, "tags": {"shop": "butcher"}}, {"type": "node", "id": 11223037003, "lat": -6.2900142, "lon": 107.1715403}, {"type": "node", "id": 11223037004, "lat": -6.2900188, "lon": 107.1719245}, {"type": "node", "id": 11223037005, "lat": -6.2901768, "lon": 107.1719225}, {"type": "node", "id": 11223037006, "lat": -6.2901722, "lon": 107.1715383}, {"type": "node", "id": 11226645669, "lat": -6.2736275, "lon": 107.0006137, "tags": {"amenity": "fast_food", "name": "Sate Padang Sabana 1"}}, {"type": "node", "id": 11230662952, "lat": -6.2731747, "lon": 107.0084286, "tags": {"amenity": "fast_food", "name": "Bubur Ayam Cirebon"}}, {"type": "node", "id": 11258088602, "lat": -6.3291005, "lon": 107.1341036}, {"type": "node", "id": 11258088603, "lat": -6.329148, "lon": 107.1347986}, {"type": "node", "id": 11258088604, "lat": -6.328697, "lon": 107.1348298}, {"type": "node", "id": 11258088605, "lat": -6.3286495, "lon": 107.1341348}, {"type": "node", "id": 11260175183, "lat": -6.3684465, "lon": 107.1788272, "tags": {"name": "Sakura Park Hotel", "tourism": "hotel"}}, {"type": "node", "id": 11260175204, "lat": -6.367116, "lon": 107.1783227}, {"type": "node", "id": 11260175205, "lat": -6.3670742, "lon": 107.1783379}, {"type": "node", "id": 11260175206, "lat": -6.3672215, "lon": 107.1783886}, {"type": "node", "id": 11260175207, "lat": -6.3670665, "lon": 107.1783168}, {"type": "node", "id": 11260175208, "lat": -6.3671083, "lon": 107.1783015}, {"type": "node", "id": 11260175209, "lat": -6.3671381, "lon": 107.1783146}, {"type": "node", "id": 11260175210, "lat": -6.3672482, "lon": 107.1784626}, {"type": "node", "id": 11260175211, "lat": -6.3671017, "lon": 107.1785161}, {"type": "node", "id": 11260175212, "lat": -6.3670417, "lon": 107.1783498}, {"type": "node", "id": 11260175213, "lat": -6.3664014, "lon": 107.1785398}, {"type": "node", "id": 11260175214, "lat": -6.3664413, "lon": 107.1786941}, {"type": "node", "id": 11260175215, "lat": -6.3665833, "lon": 107.1786568}, {"type": "node", "id": 11260175216, "lat": -6.3665434, "lon": 107.1785026}, {"type": "node", "id": 11260175217, "lat": -6.3658414, "lon": 107.1776591}, {"type": "node", "id": 11260175218, "lat": -6.3660979, "lon": 107.1776605}, {"type": "node", "id": 11260175219, "lat": -6.3660986, "lon": 107.1775143}, {"type": "node", "id": 11260175220, "lat": -6.3658421, "lon": 107.1775129}, {"type": "node", "id": 11407078740, "lat": -6.279158, "lon": 107.0069303, "tags": {"amenity": "fast_food", "name": "Sate Padang Pariaman"}}, {"type": "node", "id": 11409128860, "lat": -6.2692388, "lon": 107.0073155, "tags": {"check_date": "2023-12-11", "shop": "convenience"}}, {"type": "node", "id": 11409138593, "lat": -6.2682025, "lon": 107.0067936, "tags": {"amenity": "restaurant", "check_date": "2023-12-11", "name": "Warung Nasi Kuningan \"Teteh\""}}, {"type": "node", "id": 11655186581, "lat": -6.2730998, "lon": 107.0007997, "tags": {"addr:city": "Kota Bekasi", "addr:postcode": "17114", "addr:street": "Jl. Tri Satya Blok I No.11, RT.001/RW.007, Pengasinan, Kec. Rawalumbu", "amenity": "restaurant", "cuisine": "chicken;indonesian", "name": "Doyan Ayam Rawalumbu, Bekasi"}}, {"type": "node", "id": 11671564679, "lat": -6.2608055, "lon": 107.0022428}, {"type": "node", "id": 11671564680, "lat": -6.260857, "lon": 107.0023616}, {"type": "node", "id": 11671564681, "lat": -6.2608354, "lon": 107.002372}, {"type": "node", "id": 11671564682, "lat": -6.2609001, "lon": 107.0025106}, {"type": "node", "id": 11671564683, "lat": -6.2608589, "lon": 107.0025276}, {"type": "node", "id": 11671564684, "lat": -6.2608804, "lon": 107.0025738}, {"type": "node", "id": 11671564685, "lat": -6.2607333, "lon": 107.002637}, {"type": "node", "id": 11671564686, "lat": -6.2607098, "lon": 107.0025851}, {"type": "node", "id": 11671564687, "lat": -6.260767, "lon": 107.0025606}, {"type": "node", "id": 11671564688, "lat": -6.2606536, "lon": 107.0023135}, {"type": "node", "id": 11778567151, "lat": -6.2783577, "lon": 107.0339248, "tags": {"amenity": "cafe", "name": "Lembayung Coffee"}}, {"type": "node", "id": 11795085548, "lat": -6.2861946, "lon": 107.0020036, "tags": {"amenity": "restaurant", "check_date": "2024-04-06", "name": "RM Masakan Padang"}}, {"type": "node", "id": 11915980191, "lat": -6.2691656, "lon": 107.042823, "tags": {"brand": "Indomaret", "brand:wikidata": "Q4262825", "name": "Indomaret", "operator": "Bright* SPBU Raya Kalimalang", "shop": "convenience"}}, {"type": "node", "id": 11966136360, "lat": -6.25297, "lon": 107.0025634, "tags": {"amenity": "cafe", "name": "The Little Jasmine"}}, {"type": "node", "id": 11993289559, "lat": -6.3517619, "lon": 107.1961811, "tags": {"amenity": "fast_food", "name": "Cireng Keraton"}}, {"type": "node", "id": 11993334427, "lat": -6.3517139, "lon": 107.1968275, "tags": {"amenity": "fast_food", "name": "Chicol Taste of Korea"}}, {"type": "node", "id": 11993334428, "lat": -6.3517459, "lon": 107.1965083, "tags": {"amenity": "restaurant", "name": "Kwetiauw 28 Aho"}}, {"type": "node", "id": 11993335250, "lat": -6.3518978, "lon": 107.1965298, "tags": {"amenity": "fast_food", "name": "Chicking"}}, {"type": "node", "id": 11993335422, "lat": -6.351258, "lon": 107.195178, "tags": {"amenity": "restaurant", "name": "Blvckbelt"}}, {"type": "node", "id": 11993337333, "lat": -6.3509888, "lon": 107.1944028, "tags": {"amenity": "restaurant", "name": "Gamchi"}}, {"type": "node", "id": 11993338244, "lat": -6.3508582, "lon": 107.1942231, "tags": {"amenity": "restaurant", "name": "Pho Ba Ba"}}, {"type": "node", "id": 11993340126, "lat": -6.3507462, "lon": 107.1938717, "tags": {"amenity": "restaurant", "name": "Gion The Sushi Bar"}}, {"type": "node", "id": 11993340127, "lat": -6.3522044, "lon": 107.1965459, "tags": {"amenity": "restaurant", "name": "Izuka Gyoza"}}, {"type": "node", "id": 11993346529, "lat": -6.3508502, "lon": 107.1953416, "tags": {"amenity": "restaurant", "name": "Han Guksu"}}, {"type": "node", "id": 11993346530, "lat": -6.3507116, "lon": 107.1941507, "tags": {"amenity": "restaurant", "name": "Haraku Ramen"}}, {"type": "node", "id": 11993347303, "lat": -6.3520231, "lon": 107.1968222, "tags": {"amenity": "fast_food", "name": "D'Crepes"}}, {"type": "node", "id": 11993347322, "lat": -6.3513114, "lon": 107.194899, "tags": {"amenity": "restaurant", "name": "Gyukaku"}}, {"type": "node", "id": 11993347795, "lat": -6.3511354, "lon": 107.1940407, "tags": {"amenity": "restaurant", "name": "Miss Thai Boat Noodle"}}, {"type": "node", "id": 11993350140, "lat": -6.3518925, "lon": 107.1968007, "tags": {"amenity": "restaurant", "name": "Kyochon 1991"}}, {"type": "node", "id": 11993354401, "lat": -6.3516073, "lon": 107.196739, "tags": {"amenity": "fast_food", "name": "Pancious"}}, {"type": "node", "id": 11993355336, "lat": -6.3509462, "lon": 107.1942982, "tags": {"amenity": "restaurant", "brand": "California Fried Chicken", "brand:wikidata": "Q5020502", "cuisine": "chicken", "name": "CFC"}}, {"type": "node", "id": 11993359320, "lat": -6.3514047, "lon": 107.1964896, "tags": {"amenity": "cafe", "name": "Aunti Anne's"}}, {"type": "node", "id": 11993359943, "lat": -6.3516686, "lon": 107.1963125, "tags": {"amenity": "restaurant", "name": "Sushi King"}}, {"type": "node", "id": 11993359962, "lat": -6.3510421, "lon": 107.1955562, "tags": {"amenity": "fast_food", "brand": "Yoshinoya", "brand:en": "Yoshinoya", "brand:wikidata": "Q776272", "cuisine": "beef_bowl", "name": "Yoshinoya", "name:en": "Yoshinoya", "name:ja": "\u5409\u91ce\u5bb6", "takeaway": "yes"}}, {"type": "node", "id": 11993360443, "lat": -6.3510021, "lon": 107.1940568, "tags": {"amenity": "cafe", "name": "Butter Toast"}}, {"type": "node", "id": 11993363385, "lat": -6.3509488, "lon": 107.1950009, "tags": {"amenity": "ice_cream", "brand": "Baskin-Robbins", "brand:wikidata": "Q584601", "cuisine": "ice_cream", "name": "Baskin-Robbins"}}, {"type": "node", "id": 11993364368, "lat": -6.3509302, "lon": 107.1958458, "tags": {"amenity": "cafe", "brand": "Boost Juice", "brand:wikidata": "Q4943789", "cuisine": "juice", "name": "Boost Juice", "takeaway": "yes"}}, {"type": "node", "id": 11993364381, "lat": -6.351506, "lon": 107.1967176, "tags": {"amenity": "restaurant", "name": "Sushi Go"}}, {"type": "node", "id": 11993364674, "lat": -6.3514526, "lon": 107.1952075, "tags": {"amenity": "restaurant", "name": "A&W"}}, {"type": "node", "id": 11993365337, "lat": -6.3521511, "lon": 107.1970904, "tags": {"amenity": "fast_food", "name": "Doner Kebab"}}, {"type": "node", "id": 11993365438, "lat": -6.3513487, "lon": 107.1954864, "tags": {"amenity": "fast_food", "name": "Jolly Time Popcorn"}}, {"type": "node", "id": 11993365440, "lat": -6.3510261, "lon": 107.1953228, "tags": {"amenity": "restaurant", "name": "Zenbu"}}, {"type": "node", "id": 11993366748, "lat": -6.3515939, "lon": 107.1954918, "tags": {"amenity": "restaurant", "name": "Ta Wan"}}, {"type": "node", "id": 11993366835, "lat": -6.3510554, "lon": 107.1951243, "tags": {"amenity": "ice_cream", "name": "Mixue"}}, {"type": "node", "id": 11993367387, "lat": -6.351314, "lon": 107.1959692, "tags": {"amenity": "restaurant", "name": "Bageur Tengkleng & Siomay"}}, {"type": "node", "id": 11993367388, "lat": -6.3511194, "lon": 107.1951833, "tags": {"amenity": "restaurant", "name": "Baso A Fung"}}, {"type": "node", "id": 11993367617, "lat": -6.3511541, "lon": 107.1954194, "tags": {"amenity": "restaurant", "name": "Chadol Gujeolpan"}}, {"type": "node", "id": 11993371283, "lat": -6.3510261, "lon": 107.19381, "tags": {"amenity": "restaurant", "name": "Soto Betawi by Warung Betawi"}}, {"type": "node", "id": 11993371816, "lat": -6.3515646, "lon": 107.1961758, "tags": {"amenity": "fast_food", "name": "Hop Hop Signature"}}, {"type": "node", "id": 11993371818, "lat": -6.3512047, "lon": 107.1963984, "tags": {"amenity": "restaurant", "name": "Kimukatsu"}}, {"type": "node", "id": 11993371820, "lat": -6.3522444, "lon": 107.19679, "tags": {"amenity": "cafe", "name": "Susu Mbok Darmi"}}, {"type": "node", "id": 11993372171, "lat": -6.3516126, "lon": 107.1964332, "tags": {"amenity": "restaurant", "name": "Dapur Solo"}}, {"type": "node", "id": 11993372600, "lat": -6.3508635, "lon": 107.1949795, "tags": {"amenity": "restaurant", "name": "The Veranda Dine & Chill"}}, {"type": "node", "id": 11993373165, "lat": -6.3509888, "lon": 107.1946764, "tags": {"amenity": "fast_food", "name": "Montato"}}, {"type": "node", "id": 11993373583, "lat": -6.35141, "lon": 107.1957466, "tags": {"amenity": "restaurant", "name": "Penyetan Cok"}}, {"type": "node", "id": 11993373584, "lat": -6.3510261, "lon": 107.1961462, "tags": {"amenity": "fast_food", "brand": "Pepper Lunch", "brand:wikidata": "Q1016072", "cuisine": "teppanyaki", "name": "Pepper Lunch", "takeaway": "yes"}}, {"type": "node", "id": 11993373585, "lat": -6.3510848, "lon": 107.1958378, "tags": {"amenity": "restaurant", "name": "Ramen Beast"}}, {"type": "node", "id": 11993373586, "lat": -6.3511248, "lon": 107.1946415, "tags": {"amenity": "restaurant", "name": "Seirock Ya Ramen"}}, {"type": "node", "id": 11993373926, "lat": -6.3517859, "lon": 107.1967256, "tags": {"alt_name": "Hoka Hoka Bento", "amenity": "fast_food", "brand": "HokBen", "brand:wikidata": "Q5877948", "cuisine": "japanese", "name": "HokBen", "takeaway": "yes"}}, {"type": "node", "id": 11993376117, "lat": -6.3516712, "lon": 107.1960255, "tags": {"amenity": "restaurant", "name": "Steak 21"}}, {"type": "node", "id": 11993376118, "lat": -6.3511914, "lon": 107.1961838, "tags": {"amenity": "fast_food", "brand": "Wingstop", "brand:wikidata": "Q8025339", "cuisine": "wings", "name": "Wingstop", "takeaway": "yes"}}, {"type": "node", "id": 11993377486, "lat": -6.3508608, "lon": 107.1939898, "tags": {"amenity": "restaurant", "name": "Sate Dombud"}}, {"type": "node", "id": 11993377577, "lat": -6.3520098, "lon": 107.1971655, "tags": {"amenity": "cafe", "name": "Dum Dum"}}, {"type": "node", "id": 11993377588, "lat": -6.3510101, "lon": 107.1942151, "tags": {"amenity": "restaurant", "name": "Yammie Hotplate"}}, {"type": "node", "id": 11993378506, "lat": -6.3518258, "lon": 107.1970046, "tags": {"amenity": "restaurant", "name": "Taichan Gmoy"}}, {"type": "node", "id": 11993378774, "lat": -6.3508502, "lon": 107.1945074, "tags": {"amenity": "cafe", "name": "Mad Coco"}}, {"type": "node", "id": 11993379258, "lat": -6.3508715, "lon": 107.1951511, "tags": {"amenity": "ice_cream", "name": "Pika Piku"}}, {"type": "node", "id": 11993379774, "lat": -6.3508555, "lon": 107.1946952, "tags": {"amenity": "restaurant", "name": "Golden Lamian"}}, {"type": "node", "id": 11993380592, "lat": -6.3511408, "lon": 107.1949258, "tags": {"amenity": "restaurant", "name": "Maison Tatsuya"}}, {"type": "node", "id": 11993381608, "lat": -6.3520604, "lon": 107.1966317, "tags": {"amenity": "restaurant", "name": "Noodle King"}}, {"type": "node", "id": 11993383709, "lat": -6.3519085, "lon": 107.196326, "tags": {"amenity": "restaurant", "name": "Imperial Kitchen & Dimsum"}}, {"type": "node", "id": 11993385188, "lat": -6.3514846, "lon": 107.195929, "tags": {"amenity": "restaurant", "name": "Nasgor Rendang One"}}, {"type": "node", "id": 11993385620, "lat": -6.3518525, "lon": 107.1972325, "tags": {"amenity": "restaurant", "name": "Yakiniku Like"}}, {"type": "node", "id": 11993385621, "lat": -6.3515993, "lon": 107.1958941, "tags": {"amenity": "restaurant", "name": "YaminQu"}}, {"type": "node", "id": 11993385871, "lat": -6.351466, "lon": 107.1953684, "tags": {"amenity": "restaurant", "brand": "Solaria", "brand:wikidata": "Q118136107", "cuisine": "indonesian", "name": "Solaria"}}, {"type": "node", "id": 11993386174, "lat": -6.3511541, "lon": 107.1943894, "tags": {"alt_name": "Marugame Seimen", "amenity": "fast_food", "brand": "Marugame Seimen", "brand:wikidata": "Q10877253", "cuisine": "noodle", "name": "Marugame Udon", "takeaway": "yes"}}, {"type": "node", "id": 11993386175, "lat": -6.3519751, "lon": 107.1974069, "tags": {"amenity": "restaurant", "name": "Nomou Izakaya"}}, {"type": "node", "id": 11993386675, "lat": -6.3519112, "lon": 107.1966988, "tags": {"amenity": "restaurant", "name": "Sushi Hiro"}}, {"type": "node", "id": 11993386770, "lat": -6.3509248, "lon": 107.194612, "tags": {"amenity": "restaurant", "name": "Yen Saigon Group"}}, {"type": "node", "id": 11993388572, "lat": -6.3512527, "lon": 107.1958029, "tags": {"amenity": "restaurant", "name": "Pusaka Rempah"}}, {"type": "node", "id": 11993390114, "lat": -6.3512554, "lon": 107.1956527, "tags": {"amenity": "restaurant", "name": "Shabu Jin"}}, {"type": "node", "id": 11993390949, "lat": -6.3509302, "lon": 107.1961623, "tags": {"amenity": "cafe", "name": "Shake Shake in a Tub"}}, {"type": "node", "id": 11993391180, "lat": -6.3509621, "lon": 107.19484, "tags": {"amenity": "restaurant", "name": "Sinar Garut 27"}}, {"type": "node", "id": 11993394409, "lat": -6.351306, "lon": 107.195406, "tags": {"amenity": "cafe", "name": "Sour Sally"}}, {"type": "node", "id": 11993395047, "lat": -6.351418, "lon": 107.1961275, "tags": {"amenity": "restaurant", "name": "Waroeng Bakudapa Manado"}}, {"type": "node", "id": 11993395324, "lat": -6.351402, "lon": 107.1962857, "tags": {"amenity": "cafe", "name": "Susuru"}}, {"type": "node", "id": 11993395480, "lat": -6.3515646, "lon": 107.1969214, "tags": {"amenity": "cafe", "name": "The People's Cafe"}}, {"type": "node", "id": 12056630158, "lat": -6.316128, "lon": 107.2948954}, {"type": "node", "id": 12056630161, "lat": -6.3159191, "lon": 107.2954219}, {"type": "node", "id": 12056630162, "lat": -6.3158893, "lon": 107.2954099}, {"type": "node", "id": 12056630163, "lat": -6.3158371, "lon": 107.2955416}, {"type": "node", "id": 12056630165, "lat": -6.3158143, "lon": 107.2949617}, {"type": "node", "id": 12056630166, "lat": -6.3158374, "lon": 107.2949034}, {"type": "node", "id": 12056630167, "lat": -6.3159339, "lon": 107.2948174}, {"type": "node", "id": 12056640593, "lat": -6.3217946, "lon": 107.2719085}, {"type": "node", "id": 12056640594, "lat": -6.3218753, "lon": 107.2716194}, {"type": "node", "id": 12056640595, "lat": -6.3222067, "lon": 107.271713}, {"type": "node", "id": 12056640596, "lat": -6.322126, "lon": 107.2720022}, {"type": "node", "id": 12058738487, "lat": -6.3113857, "lon": 107.2716238}, {"type": "node", "id": 12058738488, "lat": -6.3115096, "lon": 107.2728668}, {"type": "node", "id": 12058738489, "lat": -6.3122244, "lon": 107.2728016}, {"type": "node", "id": 12058738490, "lat": -6.3120809, "lon": 107.2715389}, {"type": "node", "id": 12065743669, "lat": -6.2949289, "lon": 107.1343919, "tags": {"amenity": "restaurant", "name": "Warung"}}, {"type": "node", "id": 12073808073, "lat": -6.2608174, "lon": 107.0052569, "tags": {"amenity": "cafe", "name": "Kedai Kopi Prambanan"}}, {"type": "node", "id": 12117108675, "lat": -6.3585541, "lon": 107.1815322, "tags": {"name": "Shell Select", "shop": "convenience"}}, {"type": "node", "id": 12117108694, "lat": -6.3597199, "lon": 107.1816338}, {"type": "node", "id": 12117108695, "lat": -6.3597559, "lon": 107.1822011}, {"type": "node", "id": 12117108696, "lat": -6.3596258, "lon": 107.1822095}, {"type": "node", "id": 12117108697, "lat": -6.3595898, "lon": 107.1816422}, {"type": "node", "id": 12117143901, "lat": -6.3535692, "lon": 107.1821518, "tags": {"name": "Alfamart", "shop": "convenience"}}, {"type": "node", "id": 12117144058, "lat": -6.3401889, "lon": 107.1878988}, {"type": "node", "id": 12117144059, "lat": -6.3401883, "lon": 107.1879734}, {"type": "node", "id": 12117144060, "lat": -6.3399455, "lon": 107.1880247}, {"type": "node", "id": 12117144061, "lat": -6.3399236, "lon": 107.1880245}, {"type": "node", "id": 12117144062, "lat": -6.3399464, "lon": 107.187897}, {"type": "node", "id": 12117144063, "lat": -6.33992, "lon": 107.1885267}, {"type": "node", "id": 12117144064, "lat": -6.3402004, "lon": 107.1885288}, {"type": "node", "id": 12117144065, "lat": -6.3402044, "lon": 107.1879736}, {"type": "node", "id": 12119569487, "lat": -6.2563036, "lon": 107.1035572}, {"type": "node", "id": 12119569488, "lat": -6.2561135, "lon": 107.1039073}, {"type": "node", "id": 12119569489, "lat": -6.2562521, "lon": 107.1039835}, {"type": "node", "id": 12119569490, "lat": -6.2563067, "lon": 107.1033992}, {"type": "node", "id": 12119569491, "lat": -6.2564561, "lon": 107.103608}, {"type": "node", "id": 12119569492, "lat": -6.2564601, "lon": 107.1034022}, {"type": "node", "id": 12202192353, "lat": -6.3129517, "lon": 107.0106502, "tags": {"brand": "Alfamart", "brand:wikidata": "Q23745600", "name": "Alfamart Kelapa Dua", "shop": "convenience"}}, {"type": "node", "id": 12204834043, "lat": -6.3266841, "lon": 107.2749272, "tags": {"amenity": "restaurant", "name": "Restoran & Pemancingan Mang Ajo"}}, {"type": "node", "id": 12204834044, "lat": -6.3182178, "lon": 107.2706943}, {"type": "node", "id": 12204834045, "lat": -6.3186493, "lon": 107.270703}, {"type": "node", "id": 12204834046, "lat": -6.3186424, "lon": 107.2710466}, {"type": "node", "id": 12204834047, "lat": -6.3184759, "lon": 107.2710433}, {"type": "node", "id": 12204834048, "lat": -6.3184749, "lon": 107.271096}, {"type": "node", "id": 12204834049, "lat": -6.3184146, "lon": 107.2710948}, {"type": "node", "id": 12204834050, "lat": -6.3184136, "lon": 107.2711461}, {"type": "node", "id": 12204834051, "lat": -6.3183327, "lon": 107.2711445}, {"type": "node", "id": 12204834052, "lat": -6.3183338, "lon": 107.2710882}, {"type": "node", "id": 12204834053, "lat": -6.31821, "lon": 107.2710857}, {"type": "node", "id": 12204834082, "lat": -6.3184202, "lon": 107.2708898, "tags": {"amenity": "restaurant", "name": "Sindang Reret Restaurant & Convention"}}, {"type": "node", "id": 12204855209, "lat": -6.3219962, "lon": 107.2718075, "tags": {"amenity": "restaurant", "name": "SHSD Sambel Hejo Sambel Dadak"}}, {"type": "node", "id": 12205373753, "lat": -6.3032192, "lon": 107.2780027}, {"type": "node", "id": 12205373754, "lat": -6.3038516, "lon": 107.2772178}, {"type": "node", "id": 12205373755, "lat": -6.3039952, "lon": 107.2773915}, {"type": "node", "id": 12205373756, "lat": -6.3035426, "lon": 107.27777}, {"type": "node", "id": 12208507664, "lat": -6.3227444, "lon": 107.2783384, "tags": {"branch": "Karaba Indah", "brand": "Indomaret", "brand:wikidata": "Q4262825", "name": "Indomaret", "shop": "convenience"}}, {"type": "node", "id": 12208507665, "lat": -6.3230159, "lon": 107.2781788, "tags": {"branch": "Karaba Indah 2", "brand": "Alfamart", "brand:wikidata": "Q23745600", "name": "Alfamart", "shop": "convenience"}}, {"type": "node", "id": 12208507666, "lat": -6.3230053, "lon": 107.2733605, "tags": {"branch": "Karaba Indah", "brand": "Alfamart", "brand:wikidata": "Q23745600", "name": "Alfamart", "shop": "convenience"}}, {"type": "node", "id": 12208658212, "lat": -6.33757, "lon": 107.2720588, "tags": {"brand": "Novotel", "brand:wikidata": "Q420545", "name": "Novotel Karawang", "tourism": "hotel"}}, {"type": "node", "id": 12208658230, "lat": -6.3389337, "lon": 107.2713414, "tags": {"name": "Asialink Premier", "tourism": "hotel"}}, {"type": "node", "id": 12208658231, "lat": -6.3398643, "lon": 107.2702598, "tags": {"name": "favehotel Karawang", "tourism": "hotel"}}, {"type": "node", "id": 12272390437, "lat": -6.405229, "lon": 107.032938, "tags": {"addr:city": "Bekasi", "addr:district": "Bekasi", "addr:postcode": "17230", "addr:province": "Jawa Barat", "addr:street": "Muktijaya", "addr:subdistrict": "Setu", "branch": "Muktijaya", "brand": "Alfamart", "brand:wikidata": "Q23745600", "name": "Alfamart", "shop": "convenience"}}, {"type": "node", "id": 12312304814, "lat": -6.3161642, "lon": 107.0013253, "tags": {"amenity": "cafe", "name": "Tuku"}}, {"type": "node", "id": 12328325942, "lat": -6.2866786, "lon": 107.0028972, "tags": {"alt_name": "Sego Berkat Khas Wonogiri", "amenity": "fast_food", "name": "Sego Berkat"}}, {"type": "node", "id": 12328325943, "lat": -6.2866399, "lon": 107.0028282, "tags": {"alt_name": "Susu Kedelai Es Kacang Ijo Wadah Soya", "name": "Wadah Soya", "shop": "beverages"}}, {"type": "node", "id": 12328325944, "lat": -6.2866479, "lon": 107.0027379, "tags": {"name": "Warung Sembako Madura \"Rizky\"", "shop": "convenience"}}, {"type": "node", "id": 12328325945, "lat": -6.2866646, "lon": 107.002784, "tags": {"amenity": "fast_food", "name": "Raqqila Snack"}}, {"type": "node", "id": 12339430389, "lat": -6.3560232, "lon": 107.1291373, "tags": {"branch": "Kodam Pilar", "brand": "Indomaret", "brand:wikidata": "Q4262825", "name": "Indomaret", "shop": "convenience"}}, {"type": "node", "id": 12406443212, "lat": -6.31246, "lon": 107.1380291, "tags": {"name": "Nuanza Hotel & Convention", "tourism": "hotel"}}, {"type": "node", "id": 12438013296, "lat": -6.463553, "lon": 107.0345851, "tags": {"addr:city": "Kab. Bogor", "addr:district": "Jonggol", "addr:housename": "JovHana Home", "addr:housenumber": "7", "addr:neighbourhood": "RT:07", "addr:postcode": "16830", "addr:province": "Jawa Barat", "addr:street": "Bukit Ravenia", "addr:subdistrict": "SingaJaya", "addr:unit": "AQ7/07", "amenity": "bar", "min_age": "18", "name": "JovHana Home", "opening_hours": "Mo-Fr 09:00-17:00"}}, {"type": "node", "id": 12606279753, "lat": -6.3155867, "lon": 107.2954411}, {"type": "node", "id": 12606279755, "lat": -6.315782, "lon": 107.2949487}, {"type": "node", "id": 12606279756, "lat": -6.3158912, "lon": 107.294925}, {"type": "node", "id": 12671184271, "lat": -6.2880897, "lon": 107.0008885, "tags": {"brand": "Alfamart", "name": "Alfamart Makrik Baru", "shop": "convenience"}}, {"type": "node", "id": 12712336791, "lat": -6.4238476, "lon": 107.0110497}, {"type": "node", "id": 12712336792, "lat": -6.4238998, "lon": 107.0111408}, {"type": "node", "id": 12712336793, "lat": -6.4240089, "lon": 107.0110707}, {"type": "node", "id": 12712336794, "lat": -6.4239543, "lon": 107.0109797}, {"type": "node", "id": 12731551415, "lat": -6.2767986, "lon": 107.0447611}, {"type": "node", "id": 12731551416, "lat": -6.2768251, "lon": 107.0449127}, {"type": "node", "id": 12731551417, "lat": -6.2765961, "lon": 107.0449533}, {"type": "node", "id": 12731551418, "lat": -6.276586, "lon": 107.0448956}, {"type": "node", "id": 12731551419, "lat": -6.2765059, "lon": 107.0449098}, {"type": "node", "id": 12731551420, "lat": -6.2764895, "lon": 107.0448158}, {"type": "node", "id": 12731551427, "lat": -6.2765586, "lon": 107.0451691, "tags": {"brand": "Shell Select", "brand:wikidata": "Q124359752", "name": "Shell Select", "shop": "convenience"}}, {"type": "node", "id": 12731551428, "lat": -6.2762549, "lon": 107.0446665}, {"type": "node", "id": 12731551429, "lat": -6.2761197, "lon": 107.0446929}, {"type": "node", "id": 12731551430, "lat": -6.2761628, "lon": 107.0449166}, {"type": "node", "id": 12731551431, "lat": -6.2762981, "lon": 107.0448902}, {"type": "node", "id": 12731551432, "lat": -6.2759739, "lon": 107.0447928}, {"type": "node", "id": 12731551433, "lat": -6.276013, "lon": 107.0449943}, {"type": "node", "id": 12731551434, "lat": -6.2758478, "lon": 107.0450267}, {"type": "node", "id": 12731551435, "lat": -6.2758087, "lon": 107.0448252}, {"type": "node", "id": 12731551436, "lat": -6.2755814, "lon": 107.044837}, {"type": "node", "id": 12731551437, "lat": -6.2756604, "lon": 107.0450127}, {"type": "node", "id": 12731551438, "lat": -6.2754926, "lon": 107.0450891}, {"type": "node", "id": 12731551439, "lat": -6.2754136, "lon": 107.0449134}, {"type": "node", "id": 12731551440, "lat": -6.2751503, "lon": 107.0451764}, {"type": "node", "id": 12731551441, "lat": -6.2751746, "lon": 107.0451664}, {"type": "node", "id": 12731551442, "lat": -6.2752865, "lon": 107.0450719}, {"type": "node", "id": 12731551443, "lat": -6.275312, "lon": 107.0450614}, {"type": "node", "id": 12731555618, "lat": -6.2775647, "lon": 107.0463124}, {"type": "node", "id": 12731555619, "lat": -6.2776778, "lon": 107.0462764}, {"type": "node", "id": 12731555620, "lat": -6.2776921, "lon": 107.0463218}, {"type": "node", "id": 12731555621, "lat": -6.2777098, "lon": 107.0463162}, {"type": "node", "id": 12731555622, "lat": -6.2777358, "lon": 107.046399}, {"type": "node", "id": 12731555623, "lat": -6.2777155, "lon": 107.0464055}, {"type": "node", "id": 12731555624, "lat": -6.277724, "lon": 107.0464323}, {"type": "node", "id": 12731555625, "lat": -6.2776134, "lon": 107.0464675}, {"type": "node", "id": 12731555650, "lat": -6.2781489, "lon": 107.0467876}, {"type": "node", "id": 12731555651, "lat": -6.2779772, "lon": 107.0468654}, {"type": "node", "id": 12731555652, "lat": -6.2780519, "lon": 107.047032}, {"type": "node", "id": 12731555653, "lat": -6.2781127, "lon": 107.0470044}, {"type": "node", "id": 12731555654, "lat": -6.2780779, "lon": 107.0469268}, {"type": "node", "id": 12731555655, "lat": -6.2781887, "lon": 107.0468765}, {"type": "node", "id": 12731555660, "lat": -6.2781524, "lon": 107.046765}, {"type": "node", "id": 12731555661, "lat": -6.2783176, "lon": 107.0466848}, {"type": "node", "id": 12731555662, "lat": -6.2783986, "lon": 107.0468534}, {"type": "node", "id": 12731555663, "lat": -6.2782334, "lon": 107.0469338}, {"type": "node", "id": 12731555664, "lat": -6.2785066, "lon": 107.0471718}, {"type": "node", "id": 12731555665, "lat": -6.278283, "lon": 107.0473243}, {"type": "node", "id": 12731555666, "lat": -6.2783433, "lon": 107.0474138}, {"type": "node", "id": 12731555667, "lat": -6.2784711, "lon": 107.0473267}, {"type": "node", "id": 12731555668, "lat": -6.2784865, "lon": 107.0473496}, {"type": "node", "id": 12731555669, "lat": -6.2785824, "lon": 107.0472843}, {"type": "node", "id": 12731555670, "lat": -6.2785706, "lon": 107.0473048}, {"type": "node", "id": 12731555671, "lat": -6.2783717, "lon": 107.0474575}, {"type": "node", "id": 12731555672, "lat": -6.2784058, "lon": 107.0475025}, {"type": "node", "id": 12731555673, "lat": -6.2784251, "lon": 107.0474877}, {"type": "node", "id": 12731555674, "lat": -6.2784406, "lon": 107.0475081}, {"type": "node", "id": 12731555675, "lat": -6.278474, "lon": 107.0474825}, {"type": "node", "id": 12731555676, "lat": -6.278494, "lon": 107.047509}, {"type": "node", "id": 12731555677, "lat": -6.2786403, "lon": 107.0473967}, {"type": "node", "id": 12731555684, "lat": -6.2792465, "lon": 107.0464179}, {"type": "node", "id": 12731555685, "lat": -6.2789691, "lon": 107.0463189}, {"type": "node", "id": 12731555686, "lat": -6.279066, "lon": 107.0464732}, {"type": "node", "id": 12731555687, "lat": -6.2788936, "lon": 107.0465828}, {"type": "node", "id": 12731555688, "lat": -6.2787967, "lon": 107.0464285}, {"type": "node", "id": 12731555689, "lat": -6.2787693, "lon": 107.0464683}, {"type": "node", "id": 12731555690, "lat": -6.2788396, "lon": 107.0465971}, {"type": "node", "id": 12731555691, "lat": -6.2786343, "lon": 107.0467105}, {"type": "node", "id": 12731555692, "lat": -6.278564, "lon": 107.0465818}, {"type": "node", "id": 12731555693, "lat": -6.2793376, "lon": 107.0464453}, {"type": "node", "id": 12731555694, "lat": -6.2794299, "lon": 107.0465796}, {"type": "node", "id": 12731555695, "lat": -6.2793548, "lon": 107.0466318}, {"type": "node", "id": 12731555696, "lat": -6.2792625, "lon": 107.0464975}, {"type": "node", "id": 12731555750, "lat": -6.2797338, "lon": 107.0459173}, {"type": "node", "id": 12731555751, "lat": -6.2798609, "lon": 107.0456823}, {"type": "node", "id": 12731555752, "lat": -6.2798778, "lon": 107.0456916}, {"type": "node", "id": 12731555753, "lat": -6.2799275, "lon": 107.0455998}, {"type": "node", "id": 12731555754, "lat": -6.2800636, "lon": 107.0456744}, {"type": "node", "id": 12731555755, "lat": -6.2800165, "lon": 107.0457614}, {"type": "node", "id": 12731555756, "lat": -6.2800519, "lon": 107.0457808}, {"type": "node", "id": 12731555757, "lat": -6.279961, "lon": 107.0459488}, {"type": "node", "id": 12731555758, "lat": -6.2797025, "lon": 107.0461071}, {"type": "node", "id": 12731555759, "lat": -6.2797559, "lon": 107.0463592}, {"type": "node", "id": 12731555760, "lat": -6.2797813, "lon": 107.0463538}, {"type": "node", "id": 12731555761, "lat": -6.2797979, "lon": 107.0464322}, {"type": "node", "id": 12731555762, "lat": -6.2799566, "lon": 107.0463981}, {"type": "node", "id": 12731555763, "lat": -6.2799409, "lon": 107.046324}, {"type": "node", "id": 12731555764, "lat": -6.2799665, "lon": 107.0463185}, {"type": "node", "id": 12731555765, "lat": -6.2799283, "lon": 107.0461385}, {"type": "node", "id": 12731555766, "lat": -6.2795877, "lon": 107.0460912}, {"type": "node", "id": 12731555767, "lat": -6.2796138, "lon": 107.0459006}, {"type": "node", "id": 12731555768, "lat": -6.2799706, "lon": 107.0459502}, {"type": "node", "id": 12731555769, "lat": -6.2799445, "lon": 107.0461407}, {"type": "node", "id": 12732885546, "lat": -6.3505811, "lon": 107.1938056, "tags": {"name": "AEON", "shop": "supermarket"}}, {"type": "node", "id": 12734194481, "lat": -6.3406166, "lon": 107.1538172}, {"type": "node", "id": 12734194482, "lat": -6.340693, "lon": 107.1538167}, {"type": "node", "id": 12734194483, "lat": -6.3406939, "lon": 107.1539573}, {"type": "node", "id": 12734194484, "lat": -6.3406175, "lon": 107.1539577}, {"type": "node", "id": 12734221406, "lat": -6.3382192, "lon": 107.1532387, "tags": {"brand": "Alfamart", "brand:wikidata": "Q23745600", "name": "Alfamart", "shop": "convenience"}}, {"type": "node", "id": 12734221407, "lat": -6.3382231, "lon": 107.1533734, "tags": {"amenity": "cafe", "brand": "Kopi Kenangan", "brand:wikidata": "Q97221992", "cuisine": "coffee_shop", "diet:halal": "only", "name": "Kopi Kenangan", "takeaway": "yes"}}, {"type": "node", "id": 12734221429, "lat": -6.3377709, "lon": 107.1532312}, {"type": "node", "id": 12734221430, "lat": -6.3375476, "lon": 107.1532312}, {"type": "node", "id": 12734221431, "lat": -6.3375476, "lon": 107.1533686}, {"type": "node", "id": 12734221432, "lat": -6.3377709, "lon": 107.1533686}, {"type": "node", "id": 12734221553, "lat": -6.3433099, "lon": 107.1540624}, {"type": "node", "id": 12734221555, "lat": -6.3433967, "lon": 107.1541908}, {"type": "node", "id": 12734221556, "lat": -6.3435646, "lon": 107.1540752}, {"type": "node", "id": 12734221557, "lat": -6.3434765, "lon": 107.1539456}, {"type": "node", "id": 12734221558, "lat": -6.3431611, "lon": 107.1535388}, {"type": "node", "id": 12734221559, "lat": -6.3430507, "lon": 107.1536361}, {"type": "node", "id": 12734221560, "lat": -6.3431357, "lon": 107.1537629}, {"type": "node", "id": 12734221561, "lat": -6.3432891, "lon": 107.1536459}, {"type": "node", "id": 12734221562, "lat": -6.3432246, "lon": 107.1535692}, {"type": "node", "id": 12734221563, "lat": -6.343207, "lon": 107.1535869}, {"type": "node", "id": 12734221564, "lat": -6.3429497, "lon": 107.1535183}, {"type": "node", "id": 12734221565, "lat": -6.3430612, "lon": 107.1534431}, {"type": "node", "id": 12734221566, "lat": -6.3431272, "lon": 107.1535422}, {"type": "node", "id": 12734221567, "lat": -6.3430157, "lon": 107.1536174}, {"type": "node", "id": 12734221666, "lat": -6.3459712, "lon": 107.165253, "tags": {"amenity": "restaurant", "cuisine": "ramen", "name": "Ramen Ya!"}}, {"type": "node", "id": 12769567031, "lat": -6.3866644, "lon": 107.0162204, "tags": {"brand": "Alfamart", "brand:wikidata": "Q23745600", "name": "Alfamart", "shop": "convenience"}}, {"type": "node", "id": 12771221213, "lat": -6.4107567, "lon": 107.0032579}, {"type": "node", "id": 12771221214, "lat": -6.4110259, "lon": 107.0039526}, {"type": "node", "id": 12771221215, "lat": -6.4105168, "lon": 107.0043227}, {"type": "node", "id": 12771221216, "lat": -6.4100824, "lon": 107.004143}, {"type": "node", "id": 12771221217, "lat": -6.4096079, "lon": 107.0042986}, {"type": "node", "id": 12771221218, "lat": -6.4095253, "lon": 107.0040518}, {"type": "node", "id": 12771221219, "lat": -6.4092614, "lon": 107.004092}, {"type": "node", "id": 12771221220, "lat": -6.4091495, "lon": 107.0035717}, {"type": "node", "id": 12771221221, "lat": -6.4094906, "lon": 107.0034778}, {"type": "node", "id": 12771221222, "lat": -6.4095306, "lon": 107.0036307}, {"type": "node", "id": 12771221223, "lat": -6.4099571, "lon": 107.0034617}, {"type": "node", "id": 12771221224, "lat": -6.4098345, "lon": 107.0030862}, {"type": "node", "id": 12771221225, "lat": -6.4106688, "lon": 107.0028502}, {"type": "node", "id": 12771221344, "lat": -6.4077744, "lon": 107.005839}, {"type": "node", "id": 12771221345, "lat": -6.4076635, "lon": 107.0058663}, {"type": "node", "id": 12771221346, "lat": -6.4076379, "lon": 107.0057608}, {"type": "node", "id": 12771221347, "lat": -6.4077488, "lon": 107.0057335}, {"type": "node", "id": 12771221352, "lat": -6.4081534, "lon": 107.0053322}, {"type": "node", "id": 12771221353, "lat": -6.4080966, "lon": 107.0054271}, {"type": "node", "id": 12771221354, "lat": -6.4081925, "lon": 107.0054851}, {"type": "node", "id": 12771221355, "lat": -6.4082492, "lon": 107.0053902}, {"type": "node", "id": 12771221356, "lat": -6.4081824, "lon": 107.0053104}, {"type": "node", "id": 12771221357, "lat": -6.408338, "lon": 107.0054046}, {"type": "node", "id": 12771221358, "lat": -6.4084338, "lon": 107.0052444}, {"type": "node", "id": 12771221359, "lat": -6.4082782, "lon": 107.0051502}, {"type": "node", "id": 12771259254, "lat": -6.4159356, "lon": 107.0245908}, {"type": "node", "id": 12771259255, "lat": -6.4154681, "lon": 107.0246802}, {"type": "node", "id": 12771259256, "lat": -6.4164821, "lon": 107.0245278}, {"type": "node", "id": 12771259259, "lat": -6.415981, "lon": 107.0254786}, {"type": "node", "id": 12771259260, "lat": -6.4160129, "lon": 107.0253968}, {"type": "node", "id": 12771259261, "lat": -6.4161329, "lon": 107.0252614}, {"type": "node", "id": 12771259262, "lat": -6.4160716, "lon": 107.0250387}, {"type": "node", "id": 12771259263, "lat": -6.416606, "lon": 107.0249046}, {"type": "node", "id": 12771260375, "lat": -6.4156425, "lon": 107.0254639}, {"type": "node", "id": 12771260376, "lat": -6.415909, "lon": 107.0254666}, {"type": "node", "id": 12808938501, "lat": -6.3272274, "lon": 107.1266201}, {"type": "node", "id": 12808938502, "lat": -6.3271027, "lon": 107.1267146}, {"type": "node", "id": 12808938503, "lat": -6.3270298, "lon": 107.1266174}, {"type": "node", "id": 12808938504, "lat": -6.3271545, "lon": 107.1265228}, {"type": "node", "id": 12808938505, "lat": -6.3278456, "lon": 107.1271223, "tags": {"amenity": "cafe", "cuisine": "coffee_shop", "name": "Starbucks"}}, {"type": "node", "id": 12808938506, "lat": -6.3285347, "lon": 107.1280986, "tags": {"amenity": "fast_food", "cuisine": "pizza", "name": "Domino's"}}, {"type": "node", "id": 12808938529, "lat": -6.3287158, "lon": 107.1287779}, {"type": "node", "id": 12808938530, "lat": -6.3285318, "lon": 107.1288999}, {"type": "node", "id": 12808938531, "lat": -6.3284539, "lon": 107.1287808}, {"type": "node", "id": 12808938532, "lat": -6.3286379, "lon": 107.1286589}, {"type": "node", "id": 12808938533, "lat": -6.3291021, "lon": 107.1293364}, {"type": "node", "id": 12808938534, "lat": -6.3289453, "lon": 107.1294404}, {"type": "node", "id": 12808938535, "lat": -6.3288764, "lon": 107.1293351}, {"type": "node", "id": 12808938536, "lat": -6.3290332, "lon": 107.1292312}, {"type": "node", "id": 12808938537, "lat": -6.3300053, "lon": 107.1301033}, {"type": "node", "id": 12808938538, "lat": -6.3295637, "lon": 107.1303959}, {"type": "node", "id": 12808938539, "lat": -6.3294647, "lon": 107.1302446}, {"type": "node", "id": 12808938540, "lat": -6.3299063, "lon": 107.129952}, {"type": "node", "id": 12808938547, "lat": -6.3292869, "lon": 107.1299263}, {"type": "node", "id": 12808938548, "lat": -6.3292045, "lon": 107.1298005}, {"type": "node", "id": 12808938549, "lat": -6.3294798, "lon": 107.1296181}, {"type": "node", "id": 12808938550, "lat": -6.3303408, "lon": 107.1305434, "tags": {"name": "Indomaret", "shop": "convenience"}}, {"type": "node", "id": 12808938572, "lat": -6.3313819, "lon": 107.1391493, "tags": {"amenity": "restaurant", "cuisine": "indonesian", "name": "Bebek Bali"}}, {"type": "node", "id": 12808938573, "lat": -6.3316564, "lon": 107.139219, "tags": {"amenity": "restaurant", "cuisine": "indonesian", "name": "Bali Terrace"}}, {"type": "node", "id": 12808938587, "lat": -6.3313609, "lon": 107.1449155}, {"type": "node", "id": 12808938588, "lat": -6.3313521, "lon": 107.1449722}, {"type": "node", "id": 12808938589, "lat": -6.3313175, "lon": 107.1449087}, {"type": "node", "id": 12808938590, "lat": -6.331304, "lon": 107.1449964}, {"type": "node", "id": 12808938599, "lat": -6.3310168, "lon": 107.1457244}, {"type": "node", "id": 12808938600, "lat": -6.3312585, "lon": 107.1457616}, {"type": "node", "id": 12808938601, "lat": -6.3310006, "lon": 107.145657}, {"type": "node", "id": 12808938602, "lat": -6.3312677, "lon": 107.1456937}, {"type": "node", "id": 12808938607, "lat": -6.3310779, "lon": 107.1461056, "tags": {"amenity": "restaurant", "cuisine": "sushi", "name": "Fuji Sushi"}}, {"type": "node", "id": 12808938608, "lat": -6.3310326, "lon": 107.1463296, "tags": {"amenity": "restaurant", "cuisine": "korean", "name": "Gahyo"}}, {"type": "node", "id": 12808938609, "lat": -6.3329523, "lon": 107.140176}, {"type": "node", "id": 12808938610, "lat": -6.3329685, "lon": 107.1400605}, {"type": "node", "id": 12808938611, "lat": -6.3331291, "lon": 107.1400833}, {"type": "node", "id": 12808938612, "lat": -6.3331129, "lon": 107.1401988}, {"type": "node", "id": 12808938627, "lat": -6.333188, "lon": 107.1394571}, {"type": "node", "id": 12808938628, "lat": -6.3330274, "lon": 107.1394343}, {"type": "node", "id": 12808938629, "lat": -6.3330413, "lon": 107.139335}, {"type": "node", "id": 12808938630, "lat": -6.333202, "lon": 107.1393578}, {"type": "node", "id": 12808938635, "lat": -6.3330053, "lon": 107.1395979}, {"type": "node", "id": 12808938636, "lat": -6.3329914, "lon": 107.1396971}, {"type": "node", "id": 12808938637, "lat": -6.3331521, "lon": 107.13972}, {"type": "node", "id": 12808938638, "lat": -6.333166, "lon": 107.1396207}, {"type": "node", "id": 12808938652, "lat": -6.3331642, "lon": 107.1398263}, {"type": "node", "id": 12808938653, "lat": -6.3330036, "lon": 107.1398035}, {"type": "node", "id": 12808938654, "lat": -6.3329874, "lon": 107.1399191}, {"type": "node", "id": 12808938655, "lat": -6.333148, "lon": 107.1399419}, {"type": "node", "id": 12808938657, "lat": -6.3319137, "lon": 107.1397434, "tags": {"amenity": "restaurant", "cuisine": "japanese", "name": "Fishman"}}, {"type": "node", "id": 12808938658, "lat": -6.3316644, "lon": 107.1397005, "tags": {"name": "Daily Foodhall", "shop": "supermarket"}}, {"type": "node", "id": 12808938659, "lat": -6.3317657, "lon": 107.1398185, "tags": {"amenity": "restaurant", "cuisine": "chinese", "name": "Canton"}}, {"type": "node", "id": 12808938660, "lat": -6.3321603, "lon": 107.1397729, "tags": {"amenity": "cafe", "name": "Old Town White Coffee"}}, {"type": "node", "id": 12808938682, "lat": -6.3315055, "lon": 107.1436184}, {"type": "node", "id": 12808938686, "lat": -6.3314978, "lon": 107.1436742}, {"type": "node", "id": 12808938693, "lat": -6.3315496, "lon": 107.1436246}, {"type": "node", "id": 12809383182, "lat": -6.3295742, "lon": 107.1316766}, {"type": "node", "id": 12809383183, "lat": -6.3295957, "lon": 107.1317599}, {"type": "node", "id": 12809383184, "lat": -6.3295184, "lon": 107.1316489}, {"type": "node", "id": 12809383185, "lat": -6.3295306, "lon": 107.1316672}, {"type": "node", "id": 12809383186, "lat": -6.3295391, "lon": 107.131798}, {"type": "node", "id": 12809383187, "lat": -6.3294642, "lon": 107.1316855}, {"type": "node", "id": 12809383188, "lat": -6.3295564, "lon": 107.1316499}, {"type": "node", "id": 12809383189, "lat": -6.3296563, "lon": 107.131851}, {"type": "node", "id": 12809383190, "lat": -6.329723, "lon": 107.1318061}, {"type": "node", "id": 12809383191, "lat": -6.3296175, "lon": 107.1316475}, {"type": "node", "id": 12809410186, "lat": -6.3298865, "lon": 107.1341766}, {"type": "node", "id": 12839281436, "lat": -6.2814713, "lon": 107.003044, "tags": {"shop": "convenience"}}, {"type": "node", "id": 12890386051, "lat": -6.3570107, "lon": 107.2423598, "tags": {"amenity": "cafe", "brand": "Starbucks", "brand:wikidata": "Q37158", "cuisine": "coffee_shop", "name": "Starbucks", "official_name": "Starbucks Coffee", "takeaway": "yes"}}, {"type": "node", "id": 12890386084, "lat": -6.3566499, "lon": 107.2438474, "tags": {"amenity": "cafe", "name": "The People's Cafe"}}, {"type": "node", "id": 12890386611, "lat": -6.3564566, "lon": 107.2431026, "tags": {"amenity": "fast_food", "brand": "Auntie Anne's", "brand:wikidata": "Q4822010", "cuisine": "pretzel", "name": "Auntie Anne's", "takeaway": "yes"}}, {"type": "node", "id": 12890386613, "lat": -6.3562543, "lon": 107.2421913, "tags": {"amenity": "fast_food", "brand": "Richeese Factory", "brand:wikidata": "Q22915087", "cuisine": "chicken", "name": "Richeese Factory", "takeaway": "yes"}}, {"type": "node", "id": 12890386614, "lat": -6.3563599, "lon": 107.2422373, "tags": {"amenity": "fast_food", "brand": "Pepper Lunch", "brand:wikidata": "Q1016072", "cuisine": "teppanyaki", "name": "Pepper Lunch", "takeaway": "yes"}}, {"type": "node", "id": 12890386615, "lat": -6.3569719, "lon": 107.2424815, "tags": {"amenity": "restaurant", "brand": "Solaria", "brand:wikidata": "Q118136107", "cuisine": "indonesian", "name": "Solaria"}}, {"type": "node", "id": 12890386616, "lat": -6.3565797, "lon": 107.2423099, "tags": {"amenity": "fast_food", "brand": "Subway", "brand:wikidata": "Q244457", "cuisine": "sandwich", "name": "Subway", "takeaway": "yes"}}, {"type": "node", "id": 12890386617, "lat": -6.3564953, "lon": 107.2422603, "tags": {"amenity": "restaurant", "cuisine": "japanese", "name": "Kimukatsu"}}, {"type": "node", "id": 12890386618, "lat": -6.3566923, "lon": 107.2423736, "tags": {"amenity": "restaurant", "cuisine": "ramen", "name": "Ramen Beast"}}, {"type": "node", "id": 12890386621, "lat": -6.357605, "lon": 107.2430372, "tags": {"name": "Foodmax", "shop": "supermarket"}}, {"type": "node", "id": 12890386628, "lat": -6.3571091, "lon": 107.2429469, "tags": {"amenity": "restaurant", "cuisine": "chinese", "name": "Imperial Kitchen"}}, {"type": "node", "id": 12890386629, "lat": -6.3571601, "lon": 107.2430885, "tags": {"amenity": "restaurant", "cuisine": "steak_house", "name": "Steak 21"}}, {"type": "node", "id": 12890386630, "lat": -6.3572638, "lon": 107.2430248, "tags": {"amenity": "restaurant", "cuisine": "ramen", "name": "Haraku Ramen"}}, {"type": "node", "id": 12890386631, "lat": -6.3570334, "lon": 107.2437043, "tags": {"amenity": "restaurant", "brand": "California Fried Chicken", "brand:wikidata": "Q5020502", "cuisine": "chicken", "name": "CFC"}}, {"type": "node", "id": 12890386632, "lat": -6.3569561, "lon": 107.2434672, "tags": {"amenity": "restaurant", "cuisine": "noodle", "name": "Bakso Afung"}}, {"type": "node", "id": 12890386633, "lat": -6.3568224, "lon": 107.2435716, "tags": {"amenity": "cafe", "cuisine": "coffee_shop", "name": "Malaya Kopitiam"}}, {"type": "node", "id": 12890386634, "lat": -6.3568171, "lon": 107.2433982, "tags": {"amenity": "fast_food", "cuisine": "sandwich", "name": "Raffel's"}}, {"type": "node", "id": 13081229300, "lat": -6.2552824, "lon": 107.0041669, "tags": {"amenity": "restaurant", "name": "RM Restu Bundo"}}, {"type": "node", "id": 13081235459, "lat": -6.2523294, "lon": 107.0119238, "tags": {"amenity": "restaurant", "name": "Warteg Pipit"}}, {"type": "node", "id": 13081235465, "lat": -6.2543269, "lon": 107.0065701, "tags": {"name": "Hotel Sentosa", "tourism": "hotel"}}, {"type": "node", "id": 13099702968, "lat": -6.2735185, "lon": 107.00881, "tags": {"amenity": "cafe", "name": "Warung Teduh"}}, {"type": "node", "id": 13105168241, "lat": -6.2983483, "lon": 107.0004283, "tags": {"amenity": "restaurant", "name": "RM Padang Duo Putra"}}, {"type": "node", "id": 13105168242, "lat": -6.2973306, "lon": 107.0006177, "tags": {"name": "Bayt Al Fursan", "tourism": "guest_house"}}, {"type": "node", "id": 13118733575, "lat": -6.2893865, "lon": 107.0019383, "tags": {"brand": "Alfamart", "name": "Alfamart", "shop": "convenience"}}, {"type": "node", "id": 13120870702, "lat": -6.2967938, "lon": 107.0003204, "tags": {"amenity": "restaurant", "name": "RM Padang Jaso Mandeh"}}, {"type": "node", "id": 13158150476, "lat": -6.2990538, "lon": 107.2907532, "tags": {"amenity": "restaurant", "name": "Kampung Kecil Karawang", "opening_hours": "10:00-22:00", "phone": "08112712550"}}, {"type": "node", "id": 13158150499, "lat": -6.3001411, "lon": 107.2917221}, {"type": "node", "id": 13158165801, "lat": -6.3000766, "lon": 107.2917803, "tags": {"addr:housename": "Kota Kertabumi Karawang", "addr:street": "Jalan Kertabumi", "amenity": "fast_food", "branch": "Kota Kertabumi Karawang", "brand": "Richeese Factory", "brand:wikidata": "Q22915087", "cuisine": "chicken", "drive_through": "no", "name": "Richeese Factory", "opening_hours": "24/7", "takeaway": "yes"}}, {"type": "node", "id": 13158165802, "lat": -6.3000139, "lon": 107.2916962}, {"type": "node", "id": 13158165803, "lat": -6.299986, "lon": 107.2918004}, {"type": "node", "id": 13158165804, "lat": -6.3001149, "lon": 107.2918319}, {"type": "node", "id": 13161707475, "lat": -6.303554, "lon": 107.2774668}, {"type": "node", "id": 13161707476, "lat": -6.303219, "lon": 107.2770442}, {"type": "node", "id": 13161707477, "lat": -6.3027454, "lon": 107.277272}, {"type": "node", "id": 13161707478, "lat": -6.3030191, "lon": 107.2770304}, {"type": "node", "id": 13161707479, "lat": -6.3031068, "lon": 107.2771308}, {"type": "node", "id": 13161707480, "lat": -6.3028212, "lon": 107.2773689}, {"type": "node", "id": 13161707481, "lat": -6.3027528, "lon": 107.2774249}, {"type": "node", "id": 13161726934, "lat": -6.3030265, "lon": 107.2777639}, {"type": "node", "id": 13161726935, "lat": -6.3029849, "lon": 107.2777124}, {"type": "node", "id": 13266490392, "lat": -6.2670109, "lon": 107.0165194, "tags": {"brand": "Alfamart", "brand:wikidata": "Q23745600", "name": "Alfamart", "shop": "convenience"}}, {"type": "node", "id": 13266503181, "lat": -6.2730887, "lon": 107.0178202, "tags": {"brand": "Indomaret", "brand:wikidata": "Q4262825", "name": "Indomaret", "shop": "convenience"}}, {"type": "node", "id": 13273391998, "lat": -6.2881368, "lon": 107.0010071, "tags": {"amenity": "restaurant", "name": "Family 10000"}}, {"type": "node", "id": 13308041288, "lat": -6.2678293, "lon": 107.0170655, "tags": {"amenity": "cafe", "brand": "Mixue Ice Cream & Tea", "brand:wikidata": "Q107406476", "cuisine": "ice_cream;bubble_tea", "name": "Mixue", "takeaway": "yes"}}, {"type": "node", "id": 13309103611, "lat": -6.3042427, "lon": 107.2775508, "tags": {"brand": "Alfamart", "brand:wikidata": "Q23745600", "name": "Alfamart", "shop": "convenience"}}, {"type": "node", "id": 13309103612, "lat": -6.3054242, "lon": 107.2779764, "tags": {"brand": "Alfamart", "brand:wikidata": "Q23745600", "name": "Alfamart", "shop": "convenience"}}, {"type": "node", "id": 13309103615, "lat": -6.307071, "lon": 107.2776455, "tags": {"brand": "Alfamart", "brand:wikidata": "Q23745600", "name": "Alfamart", "shop": "convenience"}}, {"type": "node", "id": 13311265167, "lat": -6.3072154, "lon": 107.2789434}, {"type": "node", "id": 13311265168, "lat": -6.3291353, "lon": 107.2957943}, {"type": "node", "id": 13311265173, "lat": -6.3066001, "lon": 107.2790649}, {"type": "node", "id": 13311265174, "lat": -6.3289455, "lon": 107.2957242}, {"type": "node", "id": 13311265175, "lat": -6.3071439, "lon": 107.2787965}, {"type": "node", "id": 13311265176, "lat": -6.3066717, "lon": 107.2792117}, {"type": "node", "id": 13311265178, "lat": -6.3290694, "lon": 107.2956619}, {"type": "node", "id": 13311265181, "lat": -6.3290114, "lon": 107.2958567}, {"type": "node", "id": 13313539139, "lat": -6.3053604, "lon": 107.2788994}, {"type": "node", "id": 13313539140, "lat": -6.3058024, "lon": 107.2787529}, {"type": "node", "id": 13313539141, "lat": -6.3052798, "lon": 107.2786534}, {"type": "node", "id": 13314070287, "lat": -6.2999662, "lon": 107.2835506, "tags": {"amenity": "fuel", "brand": "Pertamina", "shop": "convenience", "toilets": "4"}}, {"type": "node", "id": 13316815009, "lat": -6.3042363, "lon": 107.2778566}, {"type": "node", "id": 13316815010, "lat": -6.3046206, "lon": 107.2771469}, {"type": "node", "id": 13316815011, "lat": -6.3042096, "lon": 107.2774338}, {"type": "node", "id": 13316815012, "lat": -6.3047344, "lon": 107.2775928}, {"type": "node", "id": 13316815013, "lat": -6.3042438, "lon": 107.2777334}, {"type": "node", "id": 13316815014, "lat": -6.304278, "lon": 107.2771643}, {"type": "node", "id": 13316815015, "lat": -6.3041772, "lon": 107.2777142}, {"type": "node", "id": 13321575742, "lat": -6.2680306, "lon": 107.0205741, "tags": {"amenity": "restaurant", "name": "Mie Ayam Jawir"}}, {"type": "node", "id": 13323684467, "lat": -6.3262102, "lon": 107.2915901, "tags": {"amenity": "fast_food", "brand": "Richeese Factory", "cuisine": "chicken", "name": "Richeese Factory Gramedia Karawang", "opening_hours": "10:00-21:00", "takeaway": "yes"}}, {"type": "way", "id": 317581541, "nodes": [3238632083, 3238632084, 3238632085, 3238632086, 6821965273, 3238632087, 3238632088, 3238632083], "tags": {"amenity": "restaurant", "building": "yes", "name": "La Collina Restaurant"}}, {"type": "way", "id": 338498939, "nodes": [3455797898, 3455797899, 12731551443, 12731551442, 3455797900, 3455797901, 12731551441, 12731551440, 3455797898], "tags": {"amenity": "fast_food", "brand": "McDonald's", "brand:wikidata": "Q38076", "building": "yes", "cuisine": "burger", "name": "McDonald's", "operator": "McDonnald's", "takeaway": "yes"}}, {"type": "way", "id": 342033411, "nodes": [3490836870, 3490836871, 3490836872, 3490836873, 3490836870], "tags": {"addr:housenumber": "112", "addr:postcode": "17550", "addr:street": "Jl. M. H. Thamrin", "amenity": "fuel", "fuel:diesel": "yes", "fuel:octane_92": "yes", "fuel:octane_95": "yes", "name": "Shell", "opening_hours": "24/7", "operator": "Shell", "phone": "+62 21 8990 6770", "ref": "10054230", "shop": "convenience", "tenant": "Niko Setya Putra", "toilets": "yes"}}, {"type": "way", "id": 357732711, "nodes": [3628845544, 3628845545, 3628845546, 3628845547, 3628845548, 3628845544], "tags": {"addr:city": "Bekasi", "addr:street": "Jalan Inspeksi Kalimalang", "amenity": "fuel", "atm": "yes", "fuel:diesel": "yes", "fuel:diesel_1": "dex", "fuel:octane_88": "yes", "fuel:octane_92": "yes", "name": "SPBU 34-17127", "opening_hours": "24/7", "operator": "Pertamina", "shop": "convenience", "toilets": "yes"}}, {"type": "way", "id": 391473278, "nodes": [3946870598, 3946870599, 3946870596, 3946870595, 3946870598], "tags": {"building": "yes", "name": "Indomaret Pondok Timur Indah", "shop": "convenience"}}, {"type": "way", "id": 391914077, "nodes": [3951773410, 3951773411, 3951773413, 3951773412, 3951773410], "tags": {"building": "yes", "name": "Alfamart Pondok Timur Indah", "shop": "convenience"}}, {"type": "way", "id": 400315621, "nodes": [4028944469, 4028944470, 4028944471, 4028944472, 4028944473, 4028944474, 4028944469], "tags": {"amenity": "restaurant", "building": "yes"}}, {"type": "way", "id": 409719045, "nodes": [4115906007, 4115906010, 9550338370, 9550338369, 4115906011, 9550338376, 9550338375, 9550338368, 9550338367, 4115906008, 9550338366, 9550338365, 4115906006, 9550338364, 4115906007], "tags": {"building": "yes", "name": "Hotel Merapi Merbabu", "tourism": "hotel"}}, {"type": "way", "id": 409719050, "nodes": [4115906003, 4115906002, 4115906004, 4115906005, 4115906003], "tags": {"amenity": "fast_food", "building": "yes", "cuisine": "american", "name": "mc donald"}}, {"type": "way", "id": 492687624, "nodes": [12809410186, 7653155318, 4846747258, 4846747260, 4846747261, 4846747262, 4846747263, 4846747264, 4846747265, 4846747266, 4846747267, 4846747268, 12809410186], "tags": {"brand": "Sahid", "landuse": "commercial", "name": "Hotel Sahid Jaya", "tourism": "hotel"}}, {"type": "way", "id": 499045074, "nodes": [4903668972, 4903672273, 4903669000, 4903668984, 4903668985, 4903668983, 4903669002, 4903668999, 4903672275, 4903672276, 4903668971, 4903668972], "tags": {"amenity": "cafe", "building": "yes", "name": "IEI Rest Room"}}, {"type": "way", "id": 499045732, "nodes": [4903678879, 4903678878, 4903678877, 4903678876, 4903678879], "tags": {"amenity": "food_court", "building": "yes", "name": "Toko berkah snack"}}, {"type": "way", "id": 500184658, "nodes": [12808938686, 4912974916, 12808938693, 12808938682, 12808938686], "tags": {"building": "commercial", "building:levels": "1", "name": "Alfamart", "shop": "convenience"}}, {"type": "way", "id": 500184664, "nodes": [12808938590, 4912974940, 12808938588, 12808938587, 12808938589, 4912974939, 4912974938, 4912974941, 12808938590], "tags": {"amenity": "restaurant", "building": "commercial", "building:levels": "2", "cuisine": "noodle", "name": "Bakmi Golek"}}, {"type": "way", "id": 500450599, "nodes": [4915019211, 4915019208, 4915019209, 4915019210, 4915019211], "tags": {"building": "yes", "name": "Brambang.com", "shop": "supermarket"}}, {"type": "way", "id": 502093740, "nodes": [4926795329, 4926795328, 4926795327, 4926795326, 4926795329], "tags": {"building": "yes", "name": "Tip Top Supermarket Mustika Jaya", "shop": "supermarket"}}, {"type": "way", "id": 502292757, "nodes": [4928092452, 4928092449, 4928092450, 4928092451, 4928092452], "tags": {"addr:city": "Bekasi", "addr:housenumber": "Kp Kebon Kopi", "addr:postcode": "17530", "addr:street": "gang samean", "amenity": "cafe", "building": "yes", "cuisine": "indonesian", "internet_access": "yes", "internet_access:fee": "yes", "name": "Warkop Bu Kete", "opening_hours": "Mo-Su 08:00-22:00", "outdoor_seating": "yes", "phone": "+628991040066"}}, {"type": "way", "id": 502607920, "nodes": [4930254524, 4930254523, 4930254522, 4930254521, 4930254524], "tags": {"amenity": "food_court", "building": "yes"}}, {"type": "way", "id": 512174201, "nodes": [5008554318, 5008554317, 5008554316, 5008554315, 5008554318], "tags": {"building": "yes", "name": "Lotte", "shop": "supermarket"}}, {"type": "way", "id": 548113175, "nodes": [5295473781, 8418907198, 8418907199, 5295473782, 5295473783, 5295473784, 5295473781], "tags": {"brand": "Mercure", "brand:wikidata": "Q1709809", "brand:wikipedia": "en:Mercure (hotel)", "building": "yes", "name": "Mercure", "tourism": "hotel"}}, {"type": "way", "id": 640229694, "nodes": [6031486148, 6031486149, 6031486150, 6031486151, 6031486148], "tags": {"amenity": "restaurant", "building": "yes"}}, {"type": "way", "id": 643153069, "nodes": [6053113975, 6053113972, 6053113973, 6053113974, 6053113975], "tags": {"brand": "Indomaret", "brand:wikidata": "Q4262825", "brand:wikipedia": "en:Indomaret", "building": "yes", "name": "Indomaret", "shop": "convenience"}}, {"type": "way", "id": 645099395, "nodes": [6064983180, 6064983181, 12808938600, 12808938602, 12808938601, 6064983178, 12808938599, 6064983179, 6064983180], "tags": {"amenity": "restaurant", "building": "commercial", "building:levels": "3", "cuisine": "korean", "name": "Myeong-ga Myeon-ok"}}, {"type": "way", "id": 645235374, "nodes": [6065882816, 6065882813, 6065882814, 6065882815, 6065882816], "tags": {"building": "yes", "building:levels": "9", "name": "Hotel Ayola Cikarang", "start_date": "2017", "tourism": "hotel"}}, {"type": "way", "id": 645833179, "nodes": [6069839519, 6069839516, 6069839517, 6069839518, 6069839519], "tags": {"amenity": "restaurant", "building": "yes", "name": "Bakso Dan Mie Ayam Raksasa"}}, {"type": "way", "id": 645844550, "nodes": [6069878440, 6069878441, 6069878436, 6069878431, 6069878440], "tags": {"brand": "Alfamart", "brand:wikidata": "Q23745600", "brand:wikipedia": "en:Alfamart", "building": "yes", "name": "Alfamart Jembatan 1", "shop": "supermarket"}}, {"type": "way", "id": 645844554, "nodes": [6069878443, 6069878442, 6069878441, 6069878440, 6069878443], "tags": {"brand": "Alfamart", "brand:wikidata": "Q23745600", "brand:wikipedia": "en:Alfamart", "building": "yes", "name": "Alfamart Jembatan 1", "shop": "supermarket"}}, {"type": "way", "id": 645889933, "nodes": [6070151370, 6070151369, 6070151368, 6070151367, 6070151370], "tags": {"amenity": "restaurant", "building": "yes", "name": "RM Denai"}}, {"type": "way", "id": 645891082, "nodes": [6070153160, 6070153168, 6070153165, 6070153159, 6070153160], "tags": {"amenity": "restaurant", "building": "yes", "name": "Sinar Minang"}}, {"type": "way", "id": 771706575, "nodes": [7204179085, 7204179086, 6053117438, 7204179087, 7204179085], "tags": {"brand": "Indomaret", "brand:wikidata": "Q4262825", "brand:wikipedia": "en:Indomaret", "building": "yes", "name": "Indomaret", "shop": "convenience"}}, {"type": "way", "id": 781174170, "nodes": [7293623849, 7293623848, 7293623847, 7293623846, 7293623849], "tags": {"building": "yes", "name": "Red Door Mahkota Tarumanegara", "tourism": "hotel"}}, {"type": "way", "id": 906634149, "nodes": [8418907189, 8418907190, 8418907191, 8418907192, 8418907189], "tags": {"amenity": "cafe", "brand": "Starbucks", "brand:wikidata": "Q37158", "brand:wikipedia": "en:Starbucks", "building": "yes", "cuisine": "coffee_shop", "name": "Starbucks Galuh Mas", "official_name": "Starbucks Coffee", "takeaway": "yes"}}, {"type": "way", "id": 906634152, "nodes": [8418907213, 8418907214, 8418907215, 8418907216, 8418907213], "tags": {"addr:city": "Karawang", "addr:district": "Telukjambe Timur", "addr:postcode": "41361", "addr:province": "Jawa Barat", "addr:street": "Jl. Arteri Galuh Mas", "addr:subdistrict": "Sukaharja", "amenity": "fast_food", "brand": "McDonald's", "building": "yes", "cuisine": "burger;chicken;ice_cream", "drive_through": "yes", "name": "McDonald's Galuh Mas Karawang", "not:brand:wikidata": "Q38076", "opening_hours": "24/7", "takeaway": "yes"}}, {"type": "way", "id": 906634153, "nodes": [8418910017, 8418910018, 8418910019, 8418910020, 8418910021, 8418910017], "tags": {"addr:city": "Karawang", "addr:district": "Telukjambe Timur", "addr:postcode": "41361", "addr:province": "Jawa Barat", "addr:street": "Jl. Arteri Galuh Mas", "addr:subdistrict": "Sukaharja", "amenity": "restaurant", "building": "yes", "cuisine": "chicken", "diet:chicken": "yes", "diet:halal": "yes", "name": "Almaz Fried Chicken Galuh Mas Karawang"}}, {"type": "way", "id": 906848166, "nodes": [8420778152, 8420778153, 8420778157, 8420778158, 8420778154, 8420778155, 8420778156, 8420778152], "tags": {"addr:city": "Bekasi", "addr:postcode": "17155", "addr:street": "Jalan Raya Zamrud Selatan", "alt_name": "Kentucky Fried Chicken", "amenity": "fast_food", "brand": "KFC", "brand:wikidata": "Q524757", "brand:wikipedia": "en:KFC", "building": "yes", "cuisine": "chicken", "name": "KFC Zamrud Bekasi", "takeaway": "yes"}}, {"type": "way", "id": 906848174, "nodes": [8420778170, 8420778171, 8420778172, 8420778173, 8420778170], "tags": {"amenity": "fast_food", "brand": "McDonald's", "brand:wikidata": "Q38076", "brand:wikipedia": "en:McDonald's", "building": "yes", "cuisine": "burger", "drive_through": "yes", "name": "McDonald's", "takeaway": "yes"}}, {"type": "way", "id": 926272620, "nodes": [6070152867, 6070152847, 8595751434, 8595751435, 6070152867], "tags": {"brand": "Indomaret", "brand:wikidata": "Q4262825", "brand:wikipedia": "en:Indomaret", "building": "yes", "layer": "1", "name": "Indomaret Plus", "shop": "convenience"}}, {"type": "way", "id": 927134247, "nodes": [8602339265, 8602339266, 8602339267, 8602339268, 8602339265], "tags": {"brand": "Indomaret", "brand:wikidata": "Q4262825", "brand:wikipedia": "en:Indomaret", "building": "yes", "name": "Indomaret", "shop": "convenience"}}, {"type": "way", "id": 927228580, "nodes": [5269695907, 8602982793, 8602982794, 8602982795, 5269695907], "tags": {"brand": "Indomaret", "brand:wikidata": "Q4262825", "brand:wikipedia": "en:Indomaret", "building": "yes", "name": "Indomaret", "shop": "convenience"}}, {"type": "way", "id": 927228591, "nodes": [8603067737, 8603067738, 5269695914, 8603067739, 8603067737], "tags": {"brand": "Indomaret", "brand:wikidata": "Q4262825", "brand:wikipedia": "en:Indomaret", "building": "yes", "name": "Indomaret", "shop": "convenience"}}, {"type": "way", "id": 927228592, "nodes": [8603067740, 8603067741, 8603067742, 8603067743, 8603067740], "tags": {"brand": "Alfamart", "brand:wikidata": "Q23745600", "brand:wikipedia": "en:Alfamart", "building": "yes", "name": "Alfamart", "shop": "supermarket"}}, {"type": "way", "id": 927536289, "nodes": [8605414204, 8605414207, 8605414208, 8605414205, 8605414204], "tags": {"brand": "Alfamart", "brand:wikidata": "Q23745600", "brand:wikipedia": "en:Alfamart", "building": "yes", "name": "Alfamart", "shop": "supermarket"}}, {"type": "way", "id": 928739846, "nodes": [8613942298, 8613942301, 8613942302, 8613942299, 8613942298], "tags": {"brand": "Indomaret", "brand:wikidata": "Q4262825", "brand:wikipedia": "en:Indomaret", "building": "yes", "name": "Indomaret", "shop": "convenience"}}, {"type": "way", "id": 929113544, "nodes": [8616750713, 8616750714, 8616750715, 8616750716, 8616750713], "tags": {"brand": "Indomaret", "brand:wikidata": "Q4262825", "brand:wikipedia": "en:Indomaret", "building": "yes", "name": "Indomaret", "shop": "convenience"}}, {"type": "way", "id": 929528504, "nodes": [8620535553, 8620535554, 8620535555, 8620535556, 8620535553], "tags": {"brand": "Alfamart", "brand:wikidata": "Q23745600", "brand:wikipedia": "en:Alfamart", "building": "yes", "name": "Alfamart", "shop": "supermarket"}}, {"type": "way", "id": 936179742, "nodes": [8674836971, 8674836965, 8674836966, 8674836967, 8674836968, 8674836969, 8674836970, 8674836976, 8674836971]}, {"type": "way", "id": 936179743, "nodes": [8674836972, 8674836973, 8674836974, 8674836975, 8674836978, 8674836977, 8674836972]}, {"type": "way", "id": 936179750, "nodes": [8674837005, 8674837006, 5475734745, 5475734228, 8674837007, 8674837008, 8674837009, 8674837010, 8674837011, 8674837012, 8674837013, 8674837005], "tags": {"bar": "yes", "internet_access": "yes", "landuse": "commercial", "name": "Delonix Hotel", "rooms": "289", "tourism": "hotel", "website": "https://www.delonixhotel.com/"}}, {"type": "way", "id": 936179751, "nodes": [8674837014, 8674837015, 8674837016, 8674838017, 8674838018, 8674838019, 8674837014]}, {"type": "way", "id": 936179752, "nodes": [8674838020, 8674838021, 8674838022, 8674838023, 8674838024, 8674838025, 8674838026, 8674838027, 8674838028, 8674838029, 8674838020]}, {"type": "way", "id": 956067758, "nodes": [8848450030, 8848450031, 8848450032, 8848450033, 8848450030], "tags": {"brand": "Indomaret", "brand:wikidata": "Q4262825", "brand:wikipedia": "en:Indomaret", "building": "retail", "name": "Indomaret Bekasi TImur Regensi 5", "shop": "convenience"}}, {"type": "way", "id": 956067759, "nodes": [8848450034, 8848450035, 8848450036, 8848450037, 8848450034], "tags": {"brand": "Alfamart", "brand:wikidata": "Q23745600", "brand:wikipedia": "en:Alfamart", "building": "retail", "name": "Alfamart Bekasi Timur Regensi 5", "shop": "supermarket"}}, {"type": "way", "id": 956290120, "nodes": [8850373090, 8850373091, 8850373092, 8850373093, 8850373090], "tags": {"brand": "Alfamart", "brand:wikidata": "Q23745600", "brand:wikipedia": "en:Alfamart", "building": "yes", "name": "Alfamart", "shop": "supermarket"}}, {"type": "way", "id": 965296719, "nodes": [8929779542, 8929779543, 8929779544, 8929779526, 8929779542], "tags": {"amenity": "food_court", "building": "yes", "name": "Kantin"}}, {"type": "way", "id": 996750816, "nodes": [9203589945, 9203589946, 9203589947, 9203589948, 9203589945], "tags": {"building": "yes", "name": "Hotel Omega", "tourism": "hotel"}}, {"type": "way", "id": 1006756876, "nodes": [9288336456, 9288336453, 9288336454, 9288336455, 9288336456], "tags": {"building": "commercial", "name": "Lotte Grosir", "shop": "supermarket"}}, {"type": "way", "id": 1006781219, "nodes": [9288528767, 9288528766, 9288528765, 9288528764, 9288528767], "tags": {"building": "yes", "name": "Hotel SM", "tourism": "hotel"}}, {"type": "way", "id": 1006815844, "nodes": [9288792210, 9288792213, 9288792214, 9288792215, 9288792212, 9288792211, 9288792210], "tags": {"amenity": "restaurant", "brand": "McDonald's", "brand:wikidata": "Q38076", "brand:wikipedia": "en:McDonald's", "building": "yes", "cuisine": "burger", "name": "McDonald's", "takeaway": "yes"}}, {"type": "way", "id": 1006868903, "nodes": [9289259174, 9289259171, 9289259172, 9289259173, 9289259174], "tags": {"amenity": "fast_food", "branch": "Jababeka II Cikarang", "brand": "McDonald's", "brand:wikidata": "Q38076", "building": "yes", "cuisine": "burger", "name": "McDonald's", "takeaway": "yes"}}, {"type": "way", "id": 1006935401, "nodes": [9289791609, 9289791606, 9289791607, 9289791608, 9289791609], "tags": {"addr:city": "Kabupaten Bekasi", "addr:district": "Cikarang Utara", "addr:province": "Jawa Barat", "addr:subdistrict": "Karangraharja", "amenity": "fast_food", "brand": "McDonald's", "brand:wikidata": "Q38076", "building": "yes", "cuisine": "burger", "name": "McDonald's", "takeaway": "yes"}}, {"type": "way", "id": 1027035253, "nodes": [9468735337, 9468735335, 9468735339, 9468735336, 9468735334, 9468735338, 9468735337], "tags": {"brand": "Ibis Budget", "building": "hotel", "name": "Ibis Budget", "tourism": "hotel"}}, {"type": "way", "id": 1028418490, "nodes": [9481396551, 9481396552, 9481396553, 9481396554, 9481396563, 9481396551], "tags": {"amenity": "restaurant", "building": "yes", "internet_access": "no", "name": "Warung Desi MTB Jonggol", "opening_hours": "Mo-Su 06:00-18:00"}}, {"type": "way", "id": 1032000432, "nodes": [9510518457, 9510518456, 9510518455, 9510518452, 9510518453, 9510518454, 9510518457], "tags": {"building": "yes", "building:levels": "1", "building:use": "supermarket", "name": "Super Indo Padurenan", "shop": "supermarket"}}, {"type": "way", "id": 1049847331, "nodes": [9647824745, 9647824744, 9647824743, 9647824742, 9647824745], "tags": {"amenity": "fast_food", "brand": "Burger King", "brand:wikidata": "Q177054", "building": "yes", "cuisine": "burger", "name": "Burger King", "takeaway": "yes"}}, {"type": "way", "id": 1049847649, "nodes": [9647820404, 9647820403, 9647820402, 9647820401, 9647820404], "tags": {"amenity": "restaurant", "building": "yes", "name": "Warung Nasi Goreng Opang - Pasirsari"}}, {"type": "way", "id": 1049852388, "nodes": [9647874223, 9647874220, 9647874221, 9647874222, 9647874223], "tags": {"building": "yes", "name": "Gran Surya Hotel Cikarang", "tourism": "hotel"}}, {"type": "way", "id": 1049854852, "nodes": [9647898744, 9647898743, 9647898737, 9647898739, 9647898742, 9647898741, 9647898740, 9647898738, 9647898751, 9647898750, 1283836254, 9647898748, 9647898747, 9647898733, 9647898749, 9647898734, 9647898746, 9647898745, 9647898735, 9647898736, 9647898744], "tags": {"amenity": "fast_food", "branch": "Lippo Cikarang", "building": "commercial", "building:levels": "1", "cuisine": "burger", "name": "McDonald's"}}, {"type": "way", "id": 1049864584, "nodes": [9647990545, 9647990549, 9647990550, 9647990551, 9647990548, 9647990544, 9647990547, 9647990546, 9647990545], "tags": {"building": "yes", "name": "Farmers Market", "shop": "supermarket"}}, {"type": "way", "id": 1049864585, "nodes": [9647990557, 9647990552, 9647990556, 9647990555, 9647990553, 12731555684, 9647990554, 9647990557], "tags": {"amenity": "cafe", "building": "yes", "name": "Mr. Jack"}}, {"type": "way", "id": 1049864586, "nodes": [9647990570, 9647990566, 9647990567, 9647990565, 9647990568, 9647990564, 9647990563, 9647990562, 9647990561, 9647990569, 9647990560, 9647990559, 9647990558, 9647990570], "tags": {"amenity": "cafe", "branch": "Grand Wisata Bekasi", "brand": "Starbucks", "brand:wikidata": "Q37158", "building": "yes", "building:levels": "2", "cuisine": "coffee_shop", "name": "Starbucks", "official_name": "Starbucks Coffee", "takeaway": "yes"}}, {"type": "way", "id": 1049866838, "nodes": [9648009033, 9648009030, 9648009031, 9648009032, 9648009033], "tags": {"building": "yes", "building:levels": "12", "name": "Cikarang Primebiz Hotel", "start_date": "2015", "tourism": "hotel"}}, {"type": "way", "id": 1061093651, "nodes": [9749264913, 9749264914, 9749264915, 9749264916, 9749264913], "tags": {"building": "yes", "name": "Gobox Lippo Cikarang", "shop": "supermarket"}}, {"type": "way", "id": 1061093653, "nodes": [9749272121, 9749272122, 9749272123, 9749272124, 9749272121], "tags": {"amenity": "restaurant", "building": "yes", "name": "Hoka Hoka Bento"}}, {"type": "way", "id": 1067076356, "nodes": [9797940693, 9797940689, 9797940688, 9797940690, 9797940691, 9797940692, 9797940693], "tags": {"brand": "Aston", "building": "yes", "building:levels": "9", "internet_access": "wlan", "name": "Harper Cikarang", "start_date": "2017", "tourism": "hotel"}}, {"type": "way", "id": 1071806662, "nodes": [9834960951, 9834960949, 9834960948, 9834960950, 9834960951], "tags": {"brand": "Alfamart", "brand:wikidata": "Q23745600", "building": "retail", "name": "Alfamart", "shop": "convenience"}}, {"type": "way", "id": 1071806664, "nodes": [9834960955, 9834960953, 9834960952, 9834960954, 9834960955], "tags": {"brand": "Indomaret", "brand:wikidata": "Q4262825", "building": "retail", "name": "Indomaret Ruko La Monte", "shop": "convenience"}}, {"type": "way", "id": 1072561294, "nodes": [9840663945, 9840663944, 9840663943, 9840663942, 9840663945], "tags": {"amenity": "fast_food", "branch": "Grand Taruma Karawang", "brand": "McDonald's", "brand:wikidata": "Q38076", "building": "yes", "cuisine": "burger", "drive_through": "yes", "name": "McDonald's", "opening_hours": "24/7", "takeaway": "yes"}}, {"type": "way", "id": 1074062493, "nodes": [9852008115, 9852008114, 9852008113, 9852008112, 9852008115], "tags": {"amenity": "cafe", "brand": "Starbucks", "brand:wikidata": "Q37158", "building": "yes", "building:levels": "2", "cuisine": "coffee_shop", "name": "Starbucks", "official_name": "Starbucks Coffee", "takeaway": "yes"}}, {"type": "way", "id": 1121235373, "nodes": [10255697991, 10255697990, 10255697989, 10255697988, 10255697991], "tags": {"name": "Alfamart", "shop": "convenience"}}, {"type": "way", "id": 1132679073, "nodes": [10561523172, 10561523173, 10561523174, 10561523175, 10561523172], "tags": {"branch": "Grand Nusa Indah", "brand": "Alfamidi", "brand:wikidata": "Q12471462", "building": "yes", "name": "Alfamidi", "name:id": "Alfamidi Grand Nusa Indah - Situsari (Jonggol)", "operator": "Alfamidi Grand Nusa Indah - Situsari (Jonggol)", "shop": "convenience"}}, {"type": "way", "id": 1132679098, "nodes": [10561523283, 10561523284, 10561523285, 10561523286, 10561523283], "tags": {"brand": "Alfamart", "brand:wikidata": "Q23745600", "building": "yes", "name": "Alfamart", "operator": "Alfamart Grand Nusa Indah", "shop": "convenience"}}, {"type": "way", "id": 1132679099, "nodes": [10561523287, 10561523288, 10561523289, 10561523290, 10561523287], "tags": {"branch": "Grand Nusa Indah", "brand": "Indomaret", "brand:wikidata": "Q4262825", "building": "yes", "name": "Indomaret", "operator": "Indomaret Grand Nusa Indah", "shop": "convenience"}}, {"type": "way", "id": 1187835433, "nodes": [11029951786, 11029951787, 11029951788, 11029951789, 11029951786], "tags": {"addr:city": "Kota Bekasi", "addr:housenumber": "46", "addr:postcode": "17115", "addr:street": "P2J4+CMR, Jl. Pengasinan, RT.008/RW.002, Pengasinan, Kec. Rawalumbu, Kota Bks, Jawa Barat 17115", "amenity": "fast_food", "building": "yes", "building:levels": "2", "description": "Seblak Koceak", "height": "14", "name": "Seblak Koceak"}}, {"type": "way", "id": 1198073137, "nodes": [11114659125, 11114659123, 11114659122, 11114659124, 10024710967, 10024710968, 11114659113, 11114659125], "tags": {"alt_name": "Kentucky Fried Chicken", "amenity": "fast_food", "brand": "KFC", "brand:wikidata": "Q524757", "building": "commercial", "cuisine": "chicken", "delivery": "yes", "name": "KFC", "outdoor_seating": "yes", "takeaway": "yes"}}, {"type": "way", "id": 1198073148, "nodes": [11114659143, 11114659140, 11114659141, 11114659142, 11114659143], "tags": {"building": "yes", "building:levels": "11", "name": "Enso", "start_date": "2016", "tourism": "hotel"}}, {"type": "way", "id": 1205943153, "nodes": [11175130705, 11175130709, 11175130708, 11175130707, 11175130706, 11175130702, 11175130703, 11175130704, 11175130705], "tags": {"building": "yes", "building:levels": "2", "name": "Swiss-Bel Express", "tourism": "hotel"}}, {"type": "way", "id": 1211315934, "nodes": [11223037006, 11223037003, 11223037004, 11223037005, 11223037006], "tags": {"building": "yes", "name": "Ibis Styles", "operator": "Accor Hotels", "tourism": "hotel"}}, {"type": "way", "id": 1215123759, "nodes": [11258088605, 11258088604, 11258088603, 11258088602, 11258088605], "tags": {"building": "commercial", "building:levels": "2", "name": "Papaya Fresh Gallery", "shop": "supermarket"}}, {"type": "way", "id": 1215368268, "nodes": [11260175204, 11260175208, 11260175207, 11260175205, 11260175212, 11260175211, 11260175210, 11260175206, 11260175209, 11260175204], "tags": {"amenity": "cafe", "building": "yes", "name": "Starbucks"}}, {"type": "way", "id": 1215368269, "nodes": [11260175216, 11260175213, 11260175214, 11260175215, 11260175216], "tags": {"amenity": "fast_food", "brand": "Richeese Factory", "brand:wikidata": "Q22915087", "building": "yes", "cuisine": "chicken", "name": "Richeese Factory", "takeaway": "yes"}}, {"type": "way", "id": 1215368270, "nodes": [11260175220, 11260175217, 11260175218, 11260175219, 11260175220], "tags": {"building": "yes", "building:levels": "8", "name": "Artotel Casa", "tourism": "hotel"}}, {"type": "way", "id": 1255482570, "nodes": [11671564679, 11671564680, 11671564681, 11671564682, 11671564683, 11671564684, 11671564685, 11671564686, 11671564687, 11671564688, 11671564679], "tags": {"addr:city": "Kota Bekasi", "addr:district": "Rawalumbu", "addr:postcode": "17114", "addr:province": "Jawa Barat", "addr:street": "Jalan Cut Mutia", "addr:subdistrict": "Sepanjang Jaya", "branch": "Cut Mutia-2 BEKASI", "brand": "Shell Select", "brand:wikidata": "Q124359752", "building": "yes", "name": "Shell Select", "opening_hours": "Mo-Su 00:00-23:59", "operator": "Shell PLC", "payment:cash": "yes", "payment:credit_cards": "yes", "payment:debit_cards": "yes", "payment:visa": "yes", "shop": "convenience"}}, {"type": "way", "id": 1301675779, "nodes": [12056630158, 12056630161, 12056630162, 12056630163, 12606279753, 12606279755, 12056630165, 12056630166, 12606279756, 12056630167, 12056630158], "tags": {"branch": "Galuh Mas", "brand": "Super Indo", "brand:wikidata": "Q12518060", "building": "yes", "name": "Super Indo", "opening_hours": "08:00-22:00", "shop": "supermarket"}}, {"type": "way", "id": 1301676496, "nodes": [12056640593, 12056640594, 12056640595, 12056640596, 12056640593], "tags": {"amenity": "food_court", "building": "yes"}}, {"type": "way", "id": 1301930102, "nodes": [12058738487, 12058738488, 12058738489, 12058738490, 12058738487], "tags": {"building": "yes", "layer": "-1", "name": "Mitra10 Karawang", "shop": "supermarket"}}, {"type": "way", "id": 1308464346, "nodes": [12117108697, 12117108696, 12117108695, 12117108694, 12117108697], "tags": {"building": "hotel", "building:levels": "9", "name": "GTV Hotel", "tourism": "hotel"}}, {"type": "way", "id": 1308464370, "nodes": [12117144065, 12117144059, 12117144058, 12117144062, 12117144060, 12117144061, 12117144063, 12117144064, 12117144065], "tags": {"building": "hotel", "building:levels": "5", "name": "Le Premier", "tourism": "hotel"}}, {"type": "way", "id": 1308723759, "nodes": [12119569492, 12119569490, 12119569487, 12119569488, 12119569489, 12119569491, 12119569492], "tags": {"building": "yes", "name": "Alfamidi Super", "shop": "supermarket", "toilets": "yes"}}, {"type": "way", "id": 1318768248, "nodes": [12204834044, 12204834045, 12204834046, 12204834047, 12204834048, 12204834049, 12204834050, 12204834051, 12204834052, 12204834053, 12204834044], "tags": {"amenity": "restaurant", "building": "yes"}}, {"type": "way", "id": 1318828528, "nodes": [12205373753, 13161726934, 13161726935, 13161707481, 13161707480, 13161707477, 13161707478, 13161707479, 13161707476, 13161707475, 12205373754, 12205373755, 12205373756, 12205373753], "tags": {"building": "hotel", "building:colour": "#47c8ff", "height": "110", "internet_access": "yes", "name": "Resinda Hotel Karawang", "phone": "+62 267 8622000", "stars": "4", "swimming_pool": "outdoor", "tourism": "hotel", "website": "resindahotel.com", "wheelchair": "designated"}}, {"type": "way", "id": 1372901445, "nodes": [12712336791, 12712336792, 12712336793, 12712336794, 12712336791], "tags": {"building": "yes", "name": "Radar Madura Mart", "shop": "convenience"}}, {"type": "way", "id": 1375052720, "nodes": [12731551415, 12731551416, 12731551417, 12731551418, 12731551419, 12731551420, 12731551415], "tags": {"amenity": "restaurant", "brand": "Solaria", "brand:wikidata": "Q118136107", "building": "yes", "cuisine": "indonesian", "name": "Solaria"}}, {"type": "way", "id": 1375052722, "nodes": [12731551428, 12731551429, 12731551430, 12731551431, 12731551428], "tags": {"alt_name": "Kentucky Fried Chicken", "amenity": "fast_food", "brand": "KFC", "brand:wikidata": "Q524757", "building": "yes", "cuisine": "chicken", "name": "KFC", "takeaway": "yes"}}, {"type": "way", "id": 1375052723, "nodes": [12731551432, 12731551433, 12731551434, 12731551435, 12731551432], "tags": {"brand": "Indomaret", "brand:wikidata": "Q4262825", "building": "yes", "name": "Indomaret", "shop": "convenience"}}, {"type": "way", "id": 1375052724, "nodes": [12731551436, 12731551437, 12731551438, 12731551439, 12731551436], "tags": {"alt_name": "Hoka Hoka Bento", "amenity": "fast_food", "brand": "HokBen", "brand:wikidata": "Q5877948", "building": "yes", "cuisine": "japanese", "name": "HokBen", "takeaway": "yes"}}, {"type": "way", "id": 1375052742, "nodes": [12731555618, 12731555619, 12731555620, 12731555621, 12731555622, 12731555623, 12731555624, 12731555625, 12731555618], "tags": {"amenity": "fast_food", "brand": "Popeyes", "brand:wikidata": "Q1330910", "building": "yes", "cuisine": "chicken", "name": "Popeyes", "official_name": "Popeyes Louisiana Kitchen", "takeaway": "yes"}}, {"type": "way", "id": 1375052748, "nodes": [12731555650, 12731555651, 12731555652, 12731555653, 12731555654, 12731555655, 12731555650], "tags": {"amenity": "restaurant", "brand": "Pizza Hut", "brand:wikidata": "Q191615", "building": "yes", "cuisine": "pizza", "name": "Pizza Hut"}}, {"type": "way", "id": 1375052750, "nodes": [12731555660, 12731555661, 12731555662, 12731555663, 12731555660], "tags": {"amenity": "restaurant", "building": "yes", "cuisine": "indonesian", "name": "Warung Leko"}}, {"type": "way", "id": 1375052751, "nodes": [12731555664, 12731555665, 12731555666, 12731555667, 12731555668, 12731555669, 12731555664], "tags": {"amenity": "restaurant", "building": "yes", "cuisine": "steak_house", "name": "Abuba Steak"}}, {"type": "way", "id": 1375052752, "nodes": [12731555670, 12731555671, 12731555672, 12731555673, 12731555674, 12731555675, 12731555676, 12731555677, 12731555670], "tags": {"amenity": "restaurant", "building": "yes", "cuisine": "indonesian", "name": "Pampalassa"}}, {"type": "way", "id": 1375052754, "nodes": [12731555685, 12731555686, 12731555687, 12731555688, 12731555685], "tags": {"amenity": "restaurant", "building": "yes", "cuisine": "indonesian;sundanese", "name": "SHSD"}}, {"type": "way", "id": 1375052755, "nodes": [12731555689, 12731555690, 12731555691, 12731555692, 12731555689], "tags": {"amenity": "restaurant", "building": "yes", "cuisine": "indonesian", "name": "Bebek Kaleyo"}}, {"type": "way", "id": 1375052756, "nodes": [12731555693, 12731555694, 12731555695, 12731555696, 12731555693], "tags": {"amenity": "restaurant", "building": "yes", "cuisine": "indonesian;balinese", "name": "Bali Deso"}}, {"type": "way", "id": 1375052771, "nodes": [12731555765, 12731555764, 12731555763, 12731555762, 12731555761, 12731555760, 12731555759, 12731555758, 12731555766, 12731555767, 12731555750, 12731555751, 12731555752, 12731555753, 12731555754, 12731555755, 12731555756, 12731555757, 12731555768, 12731555769, 12731555765], "tags": {"amenity": "food_court", "building": "yes", "building:levels": "1", "name": "Gelar Waroeng"}}, {"type": "way", "id": 1375332179, "nodes": [12734194481, 12734194482, 12734194483, 12734194484, 12734194481], "tags": {"amenity": "cafe", "building": "yes", "name": "Miray Cafe"}}, {"type": "way", "id": 1375332189, "nodes": [12734221429, 12734221430, 12734221431, 12734221432, 12734221429], "tags": {"amenity": "cafe", "building": "yes", "building:levels": "2", "cuisine": "coffee_shop", "name": "Es Kopi Boss"}}, {"type": "way", "id": 1375332207, "nodes": [12734221553, 12734221555, 12734221556, 12734221557, 12734221553], "tags": {"amenity": "restaurant", "building": "yes", "building:levels": "2", "cuisine": "steak_house", "name": "Abuba Steak"}}, {"type": "way", "id": 1375332208, "nodes": [12734221558, 12734221559, 12734221560, 12734221561, 12734221562, 12734221563, 12734221558], "tags": {"amenity": "restaurant", "building": "yes", "building:levels": "1", "cuisine": "indonesian", "name": "Bebek Kaleyo"}}, {"type": "way", "id": 1375332209, "nodes": [12734221564, 12734221565, 12734221566, 12734221567, 12734221564], "tags": {"amenity": "cafe", "building": "yes", "building:levels": "2", "name": "King's Coffee"}}, {"type": "way", "id": 1379209541, "nodes": [12771221225, 12771221224, 12771221223, 12771221222, 12771221221, 12771221220, 12771221219, 12771221218, 12771221217, 12771221216, 12771221215, 12771221214, 12771221213, 12771221225], "tags": {"name": "Hotel Mekarsari Indah", "tourism": "hotel"}}, {"type": "way", "id": 1379209555, "nodes": [12771221347, 12771221346, 12771221345, 12771221344, 12771221347], "tags": {"amenity": "restaurant", "building": "yes", "cuisine": "indonesian", "name": "Kebun Sunda"}}, {"type": "way", "id": 1379209557, "nodes": [12771221355, 12771221352, 12771221353, 12771221354, 12771221355], "tags": {"amenity": "cafe", "building": "yes", "name": "Sudut Kedai"}}, {"type": "way", "id": 1379209558, "nodes": [12771221359, 12771221356, 12771221357, 12771221358, 12771221359], "tags": {"amenity": "restaurant", "building": "yes", "cuisine": "indonesian", "name": "Nasi Tempong Seped"}}, {"type": "way", "id": 1379215147, "nodes": [12771259256, 12771259263, 12771259262, 12771259261, 12771259260, 12771259259, 12771260376, 12771260375, 12771259255, 12771259254, 12771259256], "tags": {"name": "Hotel Pondok Mawar", "tourism": "hotel"}}, {"type": "way", "id": 1383478622, "nodes": [12808938504, 12808938503, 12808938502, 12808938501, 12808938504], "tags": {"amenity": "fast_food", "branch": "Lippo Cikarang", "building": "commercial", "building:levels": "1", "cuisine": "chicken", "name": "Richeese Factory"}}, {"type": "way", "id": 1383478628, "nodes": [12808938532, 12808938531, 12808938530, 12808938529, 12808938532], "tags": {"amenity": "fast_food", "building": "commercial", "building:levels": "2", "cuisine": "chicken", "name": "KFC"}}, {"type": "way", "id": 1383478629, "nodes": [12808938536, 12808938535, 12808938534, 12808938533, 12808938536], "tags": {"amenity": "fast_food", "building": "commercial", "building:levels": "1", "cuisine": "burger", "name": "Burger King"}}, {"type": "way", "id": 1383478630, "nodes": [12808938540, 12808938539, 12808938538, 12808938537, 12808938540], "tags": {"amenity": "restaurant", "building": "commercial", "building:levels": "1", "cuisine": "noodle", "name": "Mie Gacoan"}}, {"type": "way", "id": 1383478634, "nodes": [12808938549, 12808938548, 12808938547, 1283809944, 12808938549], "tags": {"amenity": "restaurant", "building": "commercial", "building:levels": "1", "cuisine": "indonesian", "name": "Solaria"}}, {"type": "way", "id": 1383478647, "nodes": [12808938612, 12808938611, 12808938610, 12808938609, 12808938612], "tags": {"amenity": "restaurant", "cuisine": "sushi", "name": "Sushi Yay!"}}, {"type": "way", "id": 1383478651, "nodes": [12808938630, 12808938629, 12808938628, 12808938627, 12808938630], "tags": {"amenity": "restaurant", "building": "commercial", "building:levels": "2", "cuisine": "indonesian", "name": "Rasa Umara", "outdoor_seating": "yes"}}, {"type": "way", "id": 1383478653, "nodes": [12808938638, 12808938635, 12808938636, 12808938637, 12808938638], "tags": {"amenity": "bar", "building": "commercial", "building:levels": "2", "name": "Tipsy Hippo", "outdoor_seating": "yes"}}, {"type": "way", "id": 1383478657, "nodes": [12808938655, 12808938652, 12808938653, 12808938654, 12808938655], "tags": {"amenity": "fast_food", "building": "yes", "cuisine": "chicken", "name": "Popeyes"}}, {"type": "way", "id": 1383532318, "nodes": [12809383182, 12809383188, 12809383185, 12809383184, 12809383187, 12809383186, 12809383183, 12809383189, 12809383190, 12809383191, 12809383182], "tags": {"alt_name": "J.Co Donuts and Coffee", "amenity": "fast_food", "brand": "J.Co Donuts'", "brand:wikidata": "Q4260444", "building": "commercial", "building:levels": "2", "cuisine": "donut;coffee_shop", "name": "J.Co", "takeaway": "yes"}}, {"type": "way", "id": 1431512151, "nodes": [13158165802, 13158165803, 13158165804, 13158150499, 13158165802], "tags": {"amenity": "restaurant", "building": "yes"}}, {"type": "way", "id": 1451386912, "nodes": [13311265173, 13311265175, 13311265167, 13311265176, 13311265173], "tags": {"branch": "Grand Taruma Karawang", "brand": "Super Indo", "brand:wikidata": "Q12518060", "building": "supermarket", "name": "Super Indo", "opening_hours": "08:00-22:00", "shop": "supermarket"}}, {"type": "way", "id": 1451386914, "nodes": [13311265178, 13311265168, 13311265181, 13311265174, 13311265178], "tags": {"amenity": "cafe", "branch": "Galuh Mas Karawang", "brand": "Kopi Kenangan", "brand:wikidata": "Q97221992", "building": "yes", "cuisine": "coffee_shop", "diet:halal": "only", "name": "Kopi Kenangan", "opening_hours": "24/7", "takeaway": "yes"}}, {"type": "way", "id": 1451632679, "nodes": [9751348471, 13313539141, 13313539139, 13313539140, 9751348471], "tags": {"building": "hotel", "internet_access": "yes", "name": "Brits Hotel Karawang", "phone": "+62 811-1001-3268", "stars": "4", "swimming_pool": "outdoor", "tourism": "hotel", "website": "britshotel.com"}}, {"type": "way", "id": 1452011150, "nodes": [13316815012, 13316815010, 13316815014, 13316815011, 13316815015, 13316815013, 13316815009, 13316815012], "tags": {"amenity": "fuel", "brand": "Pertamina", "brand:wikidata": "Q1641044", "opening_hours": "24/7", "shop": "convenience"}}, {"type": "relation", "id": 12639184, "members": [{"type": "way", "ref": 936179742, "role": "outer"}, {"type": "way", "ref": 936179743, "role": "inner"}], "tags": {"addr:city": "Karawang", "building": "yes", "building:floor": "4", "internet_access": "yes", "name": "Treepark Serviced Apartments", "rooms": "124", "stars": "3", "tourism": "hotel", "type": "multipolygon", "website": "https://www.treeparkkarawang.com/"}}, {"type": "relation", "id": 12639186, "members": [{"type": "way", "ref": 936179752, "role": "outer"}, {"type": "way", "ref": 936179751, "role": "inner"}], "tags": {"building": "yes", "building:levels": "5", "name": "Puri KIIC", "rooms": "168", "tourism": "hotel", "type": "multipolygon"}}]}